{
  "type" : "FeatureCollection",
  "features" : [{"type":"Feature","id":4,"geometry":{"type":"LineString","coordinates":[[-73.575901728999952,45.50273466200008],[-73.576391599999965,45.502983000000029],[-73.576606699999957,45.503091100000063],[-73.576632699999948,45.503105100000028]]},"properties":{"OBJECTID":4,"F_id":"way/13500588","cycleway_both":"no","highway":"pedestrian","lanes":"4","name":"Rue McTavish","name_en":"Pine Avenue West","name_fr":"Avenue des Pins Ouest","surface":"paving_stones","wikidata":"Q2874119","wikipedia":"fr:Avenue des Pins","wikipedia_en":"Pine Avenue","Shape_Length":0.00081948773116292549}},{"type":"Feature","id":5,"geometry":{"type":"LineString","coordinates":[[-73.57644879999998,45.504657300000076],[-73.576496999999961,45.504633100000035],[-73.576515499999971,45.50462390000007],[-73.576609499999961,45.504599100000064],[-73.577004799999941,45.50450950000004],[-73.577049599999953,45.504489300000046],[-73.577088099999969,45.504466600000057],[-73.577131099999974,45.504422100000056],[-73.577200199999936,45.504325800000061],[-73.57728179999998,45.504223100000047],[-73.577290399999981,45.504176100000052]]},"properties":{"OBJECTID":5,"F_id":"way/13502490","cycleway_both":"no","highway":"service","lanes":"4","name":"Rue McTavish","name_en":"Pine Avenue West","name_fr":"Avenue des Pins Ouest","surface":"asphalt","wikidata":"Q2874119","wikipedia":"fr:Avenue des Pins","wikipedia_en":"Pine Avenue","Shape_Length":0.0010303351621820667}},{"type":"Feature","id":6,"geometry":{"type":"LineString","coordinates":[[-73.57644879999998,45.504657300000076],[-73.576425699999959,45.504721000000075],[-73.576413499999944,45.504754600000069],[-73.576411299999961,45.505051500000036],[-73.576667599999951,45.505181300000061],[-73.576793399999985,45.505245400000035],[-73.576936199999977,45.505319300000053],[-73.57697509999997,45.505365900000072],[-73.576973499999951,45.505424900000037],[-73.576921599999935,45.505549500000029],[-73.576833399999941,45.505713200000059]]},"properties":{"OBJECTID":6,"F_id":"way/13502753","cycleway_both":"no","highway":"service","lanes":"4","name":"Rue McTavish","name_en":"Pine Avenue West","name_fr":"Avenue des Pins Ouest","surface":"asphalt","wikidata":"Q2874119","wikipedia":"fr:Avenue des Pins","wikipedia_en":"Pine Avenue","Shape_Length":0.0014303353150178035}},{"type":"Feature","id":7,"geometry":{"type":"LineString","coordinates":[[-73.577208999999982,45.50503800000007],[-73.577070399999968,45.504974000000061],[-73.576828899999953,45.504845500000044],[-73.576538199999959,45.504701600000033],[-73.57644879999998,45.504657300000076]]},"properties":{"OBJECTID":7,"F_id":"way/13502754","cycleway_both":"no","highway":"service","lanes":"4","name":"Rue McTavish","name_en":"Pine Avenue West","name_fr":"Avenue des Pins Ouest","surface":"asphalt","wikidata":"Q2874119","wikipedia":"fr:Avenue des Pins","wikipedia_en":"Pine Avenue","Shape_Length":0.00085036245638340309}},{"type":"Feature","id":8,"geometry":{"type":"LineString","coordinates":[[-73.576924499999961,45.506053700000052],[-73.577128199999947,45.50614500000006],[-73.577771999999982,45.506477200000063],[-73.577899999999943,45.506543200000067],[-73.577993899999967,45.506586200000072],[-73.578199699999971,45.506689900000026]]},"properties":{"OBJECTID":8,"F_id":"way/13502756","cycleway_both":"no","highway":"service","lanes":"2","name":"Rue McTavish","name_en":"Pine Avenue West","name_fr":"Avenue des Pins Ouest","surface":"asphalt","wikidata":"Q2874119","wikipedia":"fr:Avenue des Pins","wikipedia_en":"Pine Avenue","Shape_Length":0.0014254216244904917}},{"type":"Feature","id":9,"geometry":{"type":"LineString","coordinates":[[-73.577290399999981,45.504176100000052],[-73.577435599999944,45.504243600000052],[-73.577595299999984,45.504320600000028],[-73.57761469999997,45.504329900000073],[-73.577743799999951,45.504392200000041],[-73.577967599999965,45.50450010000003],[-73.577998099999945,45.504561400000057],[-73.577972099999954,45.504607500000077],[-73.577810899999974,45.50478430000004]]},"properties":{"OBJECTID":9,"F_id":"way/13502757","cycleway_both":"no","highway":"service","lanes":"2","name":"Rue McTavish","name_en":"Pine Avenue West","name_fr":"Avenue des Pins Ouest","surface":"asphalt","wikidata":"Q2874119","wikipedia":"fr:Avenue des Pins","wikipedia_en":"Pine Avenue","Shape_Length":0.0011113809829610213}},{"type":"Feature","id":10,"geometry":{"type":"LineString","coordinates":[[-73.576411299999961,45.505051500000036],[-73.576184599999976,45.505146300000035],[-73.57605499999994,45.505134200000043],[-73.575996299999986,45.505103700000063],[-73.575783299999955,45.504992900000047],[-73.575581299999953,45.504887800000063],[-73.575508899999988,45.504863000000057],[-73.575453799999934,45.504854600000044]]},"properties":{"OBJECTID":10,"F_id":"way/19912777","cycleway_both":"no","highway":"service","lanes":"2","name":"Rue McTavish","name_en":"Pine Avenue West","name_fr":"Avenue des Pins Ouest","surface":"asphalt","wikidata":"Q2874119","wikipedia":"fr:Avenue des Pins","wikipedia_en":"Pine Avenue","Shape_Length":0.001042105177989102}},{"type":"Feature","id":11,"geometry":{"type":"LineString","coordinates":[[-73.577563899999973,45.505029200000081],[-73.57751479999996,45.505111700000043],[-73.577452799999946,45.505175500000064],[-73.577411799999936,45.50521770000006],[-73.577342199999975,45.505283700000064]]},"properties":{"OBJECTID":11,"F_id":"way/19912779","cycleway_both":"no","highway":"service","lanes":"2","name":"Rue McTavish","name_en":"Pine Avenue West","name_fr":"Avenue des Pins Ouest","surface":"asphalt","wikidata":"Q2874119","wikipedia":"fr:Avenue des Pins","wikipedia_en":"Pine Avenue","Shape_Length":0.0003397235266753702}},{"type":"Feature","id":12,"geometry":{"type":"LineString","coordinates":[[-73.576337999999964,45.50468630000006],[-73.576068599999985,45.504749400000037],[-73.575801499999955,45.504821200000038],[-73.575661899999943,45.504858800000079],[-73.575531499999954,45.504862400000036],[-73.575508899999988,45.504863000000057]]},"properties":{"OBJECTID":12,"F_id":"way/20169089","cycleway_both":"no","highway":"footway","lanes":"2","name":"Rue McTavish","name_en":"Pine Avenue West","name_fr":"Avenue des Pins Ouest","surface":"asphalt","wikidata":"Q2874119","wikipedia":"fr:Avenue des Pins","wikipedia_en":"Pine Avenue","Shape_Length":0.00085090580504650591}},{"type":"Feature","id":13,"geometry":{"type":"LineString","coordinates":[[-73.578728599999977,45.507278400000075],[-73.578702699999951,45.507303400000069]]},"properties":{"OBJECTID":13,"F_id":"way/21340761","cycleway_both":"no","highway":"steps","lanes":"2","name":"Rue McTavish","name_en":"Pine Avenue West","name_fr":"Avenue des Pins Ouest","surface":"paving_stones","wikidata":"Q2874119","wikipedia":"fr:Avenue des Pins","wikipedia_en":"Pine Avenue","Shape_Length":3.5997361028416263e-05}},{"type":"Feature","id":15,"geometry":{"type":"LineString","coordinates":[[-73.578422499999988,45.504014700000027],[-73.578433099999984,45.504040500000031],[-73.578464299999951,45.504059300000051]]},"properties":{"OBJECTID":15,"F_id":"way/24365504","cycleway_both":"no","highway":"steps","lanes":"2","name":"Rue McTavish","name_en":"Pine Avenue West","name_fr":"Avenue des Pins Ouest","surface":"paving_stones","wikidata":"Q2874119","wikipedia":"fr:Avenue des Pins","wikipedia_en":"Pine Avenue","Shape_Length":6.4319015424245464e-05}},{"type":"Feature","id":16,"geometry":{"type":"LineString","coordinates":[[-73.578335899999956,45.503973700000074],[-73.578389199999947,45.50400250000007]]},"properties":{"OBJECTID":16,"F_id":"way/24365533","cycleway_both":"no","highway":"footway","lanes":"2","name":"Rue McTavish","name_en":"Pine Avenue West","name_fr":"Avenue des Pins Ouest","surface":"paving_stones","wikidata":"Q2874119","wikipedia":"fr:Avenue des Pins","wikipedia_en":"Pine Avenue","Shape_Length":6.0583248499288569e-05}},{"type":"Feature","id":17,"geometry":{"type":"LineString","coordinates":[[-73.577354499999956,45.503449400000079],[-73.577724299999943,45.503056800000081]]},"properties":{"OBJECTID":17,"F_id":"way/30176565","cycleway_both":"no","highway":"service","lanes":"2","name":"Rue McTavish","name_en":"Pine Avenue West","name_fr":"Avenue des Pins Ouest","surface":"paving_stones","wikidata":"Q2874119","wikipedia":"fr:Avenue des Pins","wikipedia_en":"Pine Avenue","Shape_Length":0.00053933922533861334}},{"type":"Feature","id":19,"geometry":{"type":"LineString","coordinates":[[-73.577290399999981,45.504176100000052],[-73.577285499999959,45.504123100000072],[-73.577292999999941,45.504063900000062],[-73.577330099999983,45.50401190000008],[-73.577570499999979,45.503774100000044],[-73.577576299999976,45.50376870000008],[-73.577588699999978,45.50375710000003],[-73.577639199999965,45.503702600000054]]},"properties":{"OBJECTID":19,"F_id":"way/34015141","cycleway_both":"no","highway":"service","lanes":"2","name":"Rue McTavish","name_en":"Pine Avenue West","name_fr":"Avenue des Pins Ouest","surface":"paving_stones","wikidata":"Q2874119","wikipedia":"fr:Avenue des Pins","wikipedia_en":"Pine Avenue","Shape_Length":0.00061412546909091616}},{"type":"Feature","id":21,"geometry":{"type":"LineString","coordinates":[[-73.577350699999954,45.505761600000028],[-73.577265299999965,45.50571780000007],[-73.577115699999979,45.505648700000052],[-73.577087099999972,45.505605500000058],[-73.577090599999963,45.50555490000005],[-73.577103399999942,45.505537700000048]]},"properties":{"OBJECTID":21,"F_id":"way/34015148","cycleway_both":"no","highway":"service","lanes":"2","name":"Rue McTavish","name_en":"Pine Avenue West","name_fr":"Avenue des Pins Ouest","surface":"paving_stones","wikidata":"Q2874119","wikipedia":"fr:Avenue des Pins","wikipedia_en":"Pine Avenue","Shape_Length":0.00038473504961815635}},{"type":"Feature","id":22,"geometry":{"type":"LineString","coordinates":[[-73.577433499999984,45.50584850000007],[-73.577304599999934,45.505968900000028],[-73.577272499999935,45.50600090000006],[-73.577152799999965,45.506120500000065]]},"properties":{"OBJECTID":22,"F_id":"way/34227402","cycleway_both":"no","highway":"service","lanes":"2","name":"Rue McTavish","name_en":"Pine Avenue West","name_fr":"Avenue des Pins Ouest","surface":"paving_stones","wikidata":"Q2874119","wikipedia":"fr:Avenue des Pins","wikipedia_en":"Pine Avenue","Shape_Length":0.00039092042197238521}},{"type":"Feature","id":23,"geometry":{"type":"LineString","coordinates":[[-73.577810899999974,45.50478430000004],[-73.577779899999939,45.504820400000028],[-73.577609399999972,45.504985200000078],[-73.577563899999973,45.505029200000081]]},"properties":{"OBJECTID":23,"F_id":"way/34227403","cycleway_both":"no","highway":"service","lanes":"2","name":"Rue McTavish","name_en":"Pine Avenue West","name_fr":"Avenue des Pins Ouest","surface":"asphalt","wikidata":"Q2874119","wikipedia":"fr:Avenue des Pins","wikipedia_en":"Pine Avenue","Shape_Length":0.00034800582021399912}},{"type":"Feature","id":24,"geometry":{"type":"LineString","coordinates":[[-73.577563899999973,45.505029200000081],[-73.577451699999983,45.505048000000045],[-73.57737039999995,45.505047700000034],[-73.577333799999963,45.505047600000069],[-73.577208999999982,45.50503800000007]]},"properties":{"OBJECTID":24,"F_id":"way/34227404","cycleway_both":"no","highway":"service","lanes":"2","name":"Rue McTavish","name_en":"Pine Avenue West","name_fr":"Avenue des Pins Ouest","surface":"asphalt","wikidata":"Q2874119","wikipedia":"fr:Avenue des Pins","wikipedia_en":"Pine Avenue","Shape_Length":0.0003568335182581369}},{"type":"Feature","id":25,"geometry":{"type":"LineString","coordinates":[[-73.577342199999975,45.505283700000064],[-73.577302499999973,45.505196700000056],[-73.57727749999998,45.505154300000072],[-73.577208999999982,45.50503800000007]]},"properties":{"OBJECTID":25,"F_id":"way/34227405","cycleway_both":"no","highway":"service","lanes":"2","name":"Rue McTavish","name_en":"Pine Avenue West","name_fr":"Avenue des Pins Ouest","surface":"asphalt","wikidata":"Q2874119","wikipedia":"fr:Avenue des Pins","wikipedia_en":"Pine Avenue","Shape_Length":0.00027982535323407311}},{"type":"Feature","id":26,"geometry":{"type":"LineString","coordinates":[[-73.576190999999938,45.503503100000046],[-73.576252899999986,45.503439700000058]]},"properties":{"OBJECTID":26,"F_id":"way/34227409","cycleway_both":"no","highway":"steps","lanes":"2","name":"Rue McTavish","name_en":"Pine Avenue West","name_fr":"Avenue des Pins Ouest","surface":"asphalt","wikidata":"Q2874119","wikipedia":"fr:Avenue des Pins","wikipedia_en":"Pine Avenue","Shape_Length":8.860682820431795e-05}},{"type":"Feature","id":27,"geometry":{"type":"LineString","coordinates":[[-73.576252899999986,45.503439700000058],[-73.576606699999957,45.503091100000063]]},"properties":{"OBJECTID":27,"F_id":"way/34227410","cycleway_both":"no","highway":"footway","lanes":"2","name":"Rue McTavish","name_en":"Pine Avenue West","name_fr":"Avenue des Pins Ouest","surface":"paving_stones","wikidata":"Q2874119","wikipedia":"fr:Avenue des Pins","wikipedia_en":"Pine Avenue","Shape_Length":0.00049668541349228736}},{"type":"Feature","id":32,"geometry":{"type":"LineString","coordinates":[[-73.577674499999944,45.504237200000034],[-73.577735599999983,45.504176900000061]]},"properties":{"OBJECTID":32,"F_id":"way/79105648","cycleway_both":"no","highway":"steps","lanes":"2","name":"Rue McTavish","name_en":"Pine Avenue West","name_fr":"Avenue des Pins Ouest","surface":"asphalt","wikidata":"Q2874119","wikipedia":"fr:Avenue des Pins","wikipedia_en":"Pine Avenue","Shape_Length":8.5844627097376414e-05}},{"type":"Feature","id":33,"geometry":{"type":"LineString","coordinates":[[-73.577735599999983,45.504176900000061],[-73.577752699999962,45.504158200000063],[-73.577821299999982,45.504082900000071],[-73.577887199999964,45.504013600000064],[-73.577904599999954,45.503995300000042],[-73.577955599999939,45.503941700000041],[-73.578082999999936,45.503807700000038]]},"properties":{"OBJECTID":33,"F_id":"way/79105651","cycleway_both":"no","highway":"footway","lanes":"2","name":"Rue McTavish","name_en":"Pine Avenue West","name_fr":"Avenue des Pins Ouest","surface":"asphalt","wikidata":"Q2874119","wikipedia":"fr:Avenue des Pins","wikipedia_en":"Pine Avenue","Shape_Length":0.00050696821943147039}},{"type":"Feature","id":36,"geometry":{"type":"LineString","coordinates":[[-73.575113699999974,45.505631300000061],[-73.575082299999963,45.505664100000047]]},"properties":{"OBJECTID":36,"F_id":"way/112976635","cycleway_both":"no","highway":"footway","lanes":"2","name":"Avenue du Docteur-Penfield","name_en":"Pine Avenue West","name_fr":"Avenue des Pins Ouest","surface":"asphalt","wikidata":"Q2874119","wikipedia":"fr:Avenue des Pins","wikipedia_en":"Pine Avenue","Shape_Length":4.5407047908614929e-05}},{"type":"Feature","id":37,"geometry":{"type":"LineString","coordinates":[[-73.575181199999975,45.505564900000081],[-73.575664399999937,45.505801900000051],[-73.576246699999956,45.506087600000058],[-73.576402299999984,45.50592400000005],[-73.576485699999978,45.505964900000038]]},"properties":{"OBJECTID":37,"F_id":"way/112976636","cycleway_both":"no","highway":"footway","lanes":"2","name":"Avenue du Docteur-Penfield","name_en":"Pine Avenue West","name_fr":"Avenue des Pins Ouest","surface":"asphalt","wikidata":"Q2874119","wikipedia":"fr:Avenue des Pins","wikipedia_en":"Pine Avenue","Shape_Length":0.0015054731442650533}},{"type":"Feature","id":38,"geometry":{"type":"LineString","coordinates":[[-73.575538299999948,45.505215900000053],[-73.575181199999975,45.505564900000081],[-73.575113699999974,45.505631300000061]]},"properties":{"OBJECTID":38,"F_id":"way/112976639","cycleway_both":"no","highway":"footway","lanes":"2","name":"Avenue du Docteur-Penfield","name_en":"Pine Avenue West","name_fr":"Avenue des Pins Ouest","surface":"asphalt","wikidata":"Q2874119","wikipedia":"fr:Avenue des Pins","wikipedia_en":"Pine Avenue","Shape_Length":0.00059400574174241715}},{"type":"Feature","id":39,"geometry":{"type":"LineString","coordinates":[[-73.576068599999985,45.504749400000037],[-73.575857799999937,45.504956700000037],[-73.575783299999955,45.504992900000047],[-73.575736799999959,45.505015400000048]]},"properties":{"OBJECTID":39,"F_id":"way/112976644","cycleway_both":"no","highway":"footway","lanes":"2","name":"Avenue du Docteur-Penfield","name_en":"Pine Avenue West","name_fr":"Avenue des Pins Ouest","surface":"asphalt","wikidata":"Q2874119","wikipedia":"fr:Avenue des Pins","wikipedia_en":"Pine Avenue","Shape_Length":0.00043013851222212951}},{"type":"Feature","id":41,"geometry":{"type":"LineString","coordinates":[[-73.578422499999988,45.504014700000027],[-73.578458499999954,45.50400460000003],[-73.578496599999937,45.504008700000043]]},"properties":{"OBJECTID":41,"F_id":"way/112977916","cycleway_both":"no","highway":"steps","lanes":"2","name":"Avenue du Docteur-Penfield","name_en":"Pine Avenue West","name_fr":"Avenue des Pins Ouest","surface":"asphalt","wikidata":"Q2874119","wikipedia":"fr:Avenue des Pins","wikipedia_en":"Pine Avenue","Shape_Length":7.5709940553641322e-05}},{"type":"Feature","id":44,"geometry":{"type":"LineString","coordinates":[[-73.576992299999972,45.505059300000028],[-73.577070399999968,45.504974000000061]]},"properties":{"OBJECTID":44,"F_id":"way/112977928","cycleway_both":"no","highway":"steps","lanes":"2","name":"Avenue du Docteur-Penfield","name_en":"Pine Avenue West","name_fr":"Avenue des Pins Ouest","surface":"asphalt","wikidata":"Q2874119","wikipedia":"fr:Avenue des Pins","wikipedia_en":"Pine Avenue","Shape_Length":0.00011565336135919081}},{"type":"Feature","id":45,"geometry":{"type":"LineString","coordinates":[[-73.576793399999985,45.505245400000035],[-73.576992299999972,45.505059300000028]]},"properties":{"OBJECTID":45,"F_id":"way/112977931","cycleway_both":"no","highway":"footway","lanes":"2","name":"Avenue du Docteur-Penfield","name_en":"Pine Avenue West","name_fr":"Avenue des Pins Ouest","surface":"asphalt","wikidata":"Q2874119","wikipedia":"fr:Avenue des Pins","wikipedia_en":"Pine Avenue","Shape_Length":0.00027238652682821869}},{"type":"Feature","id":48,"geometry":{"type":"LineString","coordinates":[[-73.579591099999959,45.504331200000081],[-73.579557899999941,45.504364600000031],[-73.579507099999944,45.504415000000051]]},"properties":{"OBJECTID":48,"F_id":"way/132259978","cycleway_both":"no","highway":"steps","lanes":"2","name":"Rue University","name_en":"Pine Avenue West","name_fr":"Avenue des Pins Ouest","surface":"asphalt","wikidata":"Q2874119","wikipedia":"fr:Avenue des Pins","wikipedia_en":"Pine Avenue","Shape_Length":0.00011865328919213048}},{"type":"Feature","id":59,"geometry":{"type":"LineString","coordinates":[[-73.578027099999986,45.503202600000066],[-73.577878899999973,45.503356300000064],[-73.577885599999945,45.50344890000008],[-73.577711399999941,45.503624700000046]]},"properties":{"OBJECTID":59,"F_id":"way/142872168","cycleway_both":"no","highway":"service","lanes":"2","name":"Avenue du Docteur-Penfield","name_en":"Pine Avenue West","name_fr":"Avenue des Pins Ouest","surface":"unpaved","wikidata":"Q2874119","wikipedia":"fr:Avenue des Pins","wikipedia_en":"Pine Avenue","Shape_Length":0.00055384298950327806}},{"type":"Feature","id":60,"geometry":{"type":"LineString","coordinates":[[-73.578403199999968,45.503383900000074],[-73.578027099999986,45.503202600000066],[-73.577724299999943,45.503056800000081]]},"properties":{"OBJECTID":60,"F_id":"way/142872170","cycleway_both":"no","highway":"service","lanes":"2","name":"Avenue du Docteur-Penfield","name_en":"Pine Avenue West","name_fr":"Avenue des Pins Ouest","surface":"unpaved","wikidata":"Q2874119","wikipedia":"fr:Avenue des Pins","wikipedia_en":"Pine Avenue","Shape_Length":0.00075359116744763786}},{"type":"Feature","id":63,"geometry":{"type":"LineString","coordinates":[[-73.576779599999952,45.502604500000075],[-73.577724299999943,45.503056800000081]]},"properties":{"OBJECTID":63,"F_id":"way/142872174","cycleway_both":"no","highway":"service","lanes":"2","name":"Avenue du Docteur-Penfield","name_en":"Pine Avenue West","name_fr":"Avenue des Pins Ouest","surface":"unpaved","wikidata":"Q2874119","wikipedia":"fr:Avenue des Pins","wikipedia_en":"Pine Avenue","Shape_Length":0.0010473936127304421}},{"type":"Feature","id":65,"geometry":{"type":"LineString","coordinates":[[-73.574527399999965,45.505095700000027],[-73.574499399999979,45.505147900000054]]},"properties":{"OBJECTID":65,"F_id":"way/142872176","cycleway_both":"no","highway":"steps","lanes":"2","name":"Avenue du Docteur-Penfield","name_en":"Pine Avenue West","name_fr":"Avenue des Pins Ouest","surface":"asphalt","wikidata":"Q2874119","wikipedia":"fr:Avenue des Pins","wikipedia_en":"Pine Avenue","Shape_Length":5.9235462369105898e-05}},{"type":"Feature","id":66,"geometry":{"type":"LineString","coordinates":[[-73.574499399999979,45.505147900000054],[-73.574473799999964,45.505176100000028],[-73.574386599999968,45.505272400000081],[-73.574353599999938,45.505308900000045]]},"properties":{"OBJECTID":66,"F_id":"way/142872178","cycleway_both":"no","highway":"footway","lanes":"2","name":"Avenue du Docteur-Penfield","name_en":"Pine Avenue West","name_fr":"Avenue des Pins Ouest","surface":"asphalt","wikidata":"Q2874119","wikipedia":"fr:Avenue des Pins","wikipedia_en":"Pine Avenue","Shape_Length":0.00021720649009545522}},{"type":"Feature","id":68,"geometry":{"type":"LineString","coordinates":[[-73.577061299999968,45.505781800000079],[-73.577043099999969,45.505802500000073]]},"properties":{"OBJECTID":68,"F_id":"way/143792934","cycleway_both":"no","highway":"steps","lanes":"2","name":"Avenue du Docteur-Penfield","name_en":"Pine Avenue West","name_fr":"Avenue des Pins Ouest","surface":"asphalt","wikidata":"Q2874119","wikipedia":"fr:Avenue des Pins","wikipedia_en":"Pine Avenue","Shape_Length":2.7563200099075337e-05}},{"type":"Feature","id":70,"geometry":{"type":"LineString","coordinates":[[-73.577035199999955,45.505822900000055],[-73.577018599999974,45.505841700000076]]},"properties":{"OBJECTID":70,"F_id":"way/143792940","cycleway_both":"no","highway":"steps","lanes":"2","name":"Place Walbrae","name_en":"Pine Avenue West","name_fr":"Avenue des Pins Ouest","surface":"paved","wikidata":"Q2874119","wikipedia":"fr:Avenue des Pins","wikipedia_en":"Pine Avenue","Shape_Length":2.5079872410829984e-05}},{"type":"Feature","id":71,"geometry":{"type":"LineString","coordinates":[[-73.578199699999971,45.506689900000026],[-73.578254499999957,45.506720200000075],[-73.578446099999951,45.50681510000004],[-73.578741399999956,45.506977000000063],[-73.578943899999956,45.507072600000072],[-73.579023199999938,45.50708480000003],[-73.579074599999956,45.507099900000071],[-73.579237599999942,45.507175000000075],[-73.579265299999975,45.507210400000076],[-73.579491299999972,45.507342100000074]]},"properties":{"OBJECTID":71,"F_id":"way/143792941","cycleway_both":"no","highway":"footway","lanes":"2","name":"Place Walbrae","name_en":"Pine Avenue West","name_fr":"Avenue des Pins Ouest","surface":"paved","wikidata":"Q2874119","wikipedia":"fr:Avenue des Pins","wikipedia_en":"Pine Avenue","Shape_Length":0.0014569319721994614}},{"type":"Feature","id":72,"geometry":{"type":"LineString","coordinates":[[-73.577060099999983,45.505755800000031],[-73.577061299999968,45.505781800000079]]},"properties":{"OBJECTID":72,"F_id":"way/143792942","cycleway_both":"no","highway":"footway","lanes":"2","name":"Place Walbrae","name_en":"Pine Avenue West","name_fr":"Avenue des Pins Ouest","surface":"paving_stones","wikidata":"Q2874119","wikipedia":"fr:Avenue des Pins","wikipedia_en":"Pine Avenue","Shape_Length":2.6027677623324128e-05}},{"type":"Feature","id":73,"geometry":{"type":"LineString","coordinates":[[-73.577005699999972,45.505896900000039],[-73.576870099999951,45.50602930000008]]},"properties":{"OBJECTID":73,"F_id":"way/143792943","cycleway_both":"no","highway":"footway","lanes":"2","name":"Place Walbrae","name_en":"Pine Avenue West","name_fr":"Avenue des Pins Ouest","surface":"paving_stones","wikidata":"Q2874119","wikipedia":"fr:Avenue des Pins","wikipedia_en":"Pine Avenue","Shape_Length":0.00018951812582611213}},{"type":"Feature","id":74,"geometry":{"type":"LineString","coordinates":[[-73.577018599999974,45.505841700000076],[-73.577009099999941,45.505882500000041],[-73.577005699999972,45.505896900000039]]},"properties":{"OBJECTID":74,"F_id":"way/143792944","cycleway_both":"no","highway":"footway","lanes":"2","name":"Place Walbrae","name_en":"Pine Avenue West","name_fr":"Avenue des Pins Ouest","surface":"paving_stones","wikidata":"Q2874119","wikipedia":"fr:Avenue des Pins","wikipedia_en":"Pine Avenue","Shape_Length":5.6687352588182698e-05}},{"type":"Feature","id":75,"geometry":{"type":"LineString","coordinates":[[-73.577043099999969,45.505802500000073],[-73.577035199999955,45.505822900000055]]},"properties":{"OBJECTID":75,"F_id":"way/143792947","cycleway_both":"no","highway":"footway","lanes":"2","name":"Place Walbrae","name_en":"Pine Avenue West","name_fr":"Avenue des Pins Ouest","surface":"paving_stones","wikidata":"Q2874119","wikipedia":"fr:Avenue des Pins","wikipedia_en":"Pine Avenue","Shape_Length":2.1876242810726351e-05}},{"type":"Feature","id":78,"geometry":{"type":"LineString","coordinates":[[-73.576793399999985,45.505245400000035],[-73.576757199999975,45.505285100000037]]},"properties":{"OBJECTID":78,"F_id":"way/143797196","cycleway_both":"no","highway":"footway","lanes":"2","name":"Place Walbrae","name_en":"Pine Avenue West","name_fr":"Avenue des Pins Ouest","surface":"paving_stones","wikidata":"Q2874119","wikipedia":"fr:Avenue des Pins","wikipedia_en":"Pine Avenue","Shape_Length":5.3726436704441144e-05}},{"type":"Feature","id":79,"geometry":{"type":"LineString","coordinates":[[-73.576625799999988,45.505226100000073],[-73.576631499999962,45.505220400000042],[-73.576667599999951,45.505181300000061]]},"properties":{"OBJECTID":79,"F_id":"way/143797197","cycleway_both":"no","highway":"footway","lanes":"2","name":"Place Walbrae","name_en":"Pine Avenue West","name_fr":"Avenue des Pins Ouest","surface":"paving_stones","wikidata":"Q2874119","wikipedia":"fr:Avenue des Pins","wikipedia_en":"Pine Avenue","Shape_Length":6.1277743981162121e-05}},{"type":"Feature","id":80,"geometry":{"type":"LineString","coordinates":[[-73.576655999999957,45.505284700000061],[-73.576663799999949,45.505273600000066]]},"properties":{"OBJECTID":80,"F_id":"way/143797200","cycleway_both":"no","highway":"footway","lanes":"2","name":"Place Walbrae","name_en":"Pine Avenue West","name_fr":"Avenue des Pins Ouest","surface":"paving_stones","wikidata":"Q2874119","wikipedia":"fr:Avenue des Pins","wikipedia_en":"Pine Avenue","Shape_Length":1.3566502856401787e-05}},{"type":"Feature","id":81,"geometry":{"type":"LineString","coordinates":[[-73.576698199999953,45.505289100000027],[-73.576663799999949,45.505273600000066],[-73.576637799999958,45.50526190000005]]},"properties":{"OBJECTID":81,"F_id":"way/143797201","cycleway_both":"no","highway":"footway","lanes":"2","name":"Place Walbrae","name_en":"Pine Avenue West","name_fr":"Avenue des Pins Ouest","surface":"paving_stones","wikidata":"Q2874119","wikipedia":"fr:Avenue des Pins","wikipedia_en":"Pine Avenue","Shape_Length":6.6241982530173017e-05}},{"type":"Feature","id":82,"geometry":{"type":"LineString","coordinates":[[-73.576757199999975,45.505285100000037],[-73.576742699999954,45.505297700000028],[-73.576723699999945,45.505298500000038],[-73.576698199999953,45.505289100000027]]},"properties":{"OBJECTID":82,"F_id":"way/143797202","cycleway_both":"no","highway":"steps","lanes":"2","name":"Place Walbrae","name_en":"Pine Avenue West","name_fr":"Avenue des Pins Ouest","surface":"paving_stones","wikidata":"Q2874119","wikipedia":"fr:Avenue des Pins","wikipedia_en":"Pine Avenue","Shape_Length":6.5403847962997681e-05}},{"type":"Feature","id":83,"geometry":{"type":"LineString","coordinates":[[-73.576637799999958,45.50526190000005],[-73.576617399999975,45.505249400000025],[-73.576617299999953,45.505237800000032],[-73.576625799999988,45.505226100000073]]},"properties":{"OBJECTID":83,"F_id":"way/143797203","cycleway_both":"no","highway":"steps","lanes":"2","name":"Place Walbrae","name_en":"Pine Avenue West","name_fr":"Avenue des Pins Ouest","surface":"paving_stones","wikidata":"Q2874119","wikipedia":"fr:Avenue des Pins","wikipedia_en":"Pine Avenue","Shape_Length":4.9987195923034314e-05}},{"type":"Feature","id":84,"geometry":{"type":"LineString","coordinates":[[-73.575736799999959,45.505015400000048],[-73.575538299999948,45.505215900000053]]},"properties":{"OBJECTID":84,"F_id":"way/143797205","cycleway_both":"no","highway":"footway","lanes":"2","name":"Place Walbrae","name_en":"Pine Avenue West","name_fr":"Avenue des Pins Ouest","surface":"paving_stones","wikidata":"Q2874119","wikipedia":"fr:Avenue des Pins","wikipedia_en":"Pine Avenue","Shape_Length":0.00028213915007721893}},{"type":"Feature","id":86,"geometry":{"type":"LineString","coordinates":[[-73.577877399999977,45.506567500000074],[-73.577682599999946,45.506776400000035],[-73.57758339999998,45.506879100000049]]},"properties":{"OBJECTID":86,"F_id":"way/143798692","cycleway_both":"no","highway":"footway","lanes":"2","name":"Place Walbrae","name_en":"Pine Avenue West","name_fr":"Avenue des Pins Ouest","surface":"paving_stones","wikidata":"Q2874119","wikipedia":"fr:Avenue des Pins","wikipedia_en":"Pine Avenue","Shape_Length":0.00042841937766014467}},{"type":"Feature","id":89,"geometry":{"type":"LineString","coordinates":[[-73.578464299999951,45.504059300000051],[-73.57849699999997,45.504084700000078]]},"properties":{"OBJECTID":89,"F_id":"way/143798696","cycleway_both":"no","highway":"footway","lanes":"2","name":"Place Walbrae","name_en":"Pine Avenue West","name_fr":"Avenue des Pins Ouest","surface":"unpaved","wikidata":"Q2874119","wikipedia":"fr:Avenue des Pins","wikipedia_en":"Pine Avenue","Shape_Length":4.1405917483551793e-05}},{"type":"Feature","id":90,"geometry":{"type":"LineString","coordinates":[[-73.577815799999939,45.506803400000081],[-73.577800599999989,45.506778800000063],[-73.577682599999946,45.506776400000035]]},"properties":{"OBJECTID":90,"F_id":"way/143798698","cycleway_both":"no","highway":"footway","lanes":"2","name":"Place Walbrae","name_en":"Pine Avenue West","name_fr":"Avenue des Pins Ouest","surface":"unpaved","wikidata":"Q2874119","wikipedia":"fr:Avenue des Pins","wikipedia_en":"Pine Avenue","Shape_Length":0.00014694152724357851}},{"type":"Feature","id":107,"geometry":{"type":"LineString","coordinates":[[-73.573564899999951,45.505453400000079],[-73.573495099999946,45.505429800000059],[-73.573449499999981,45.505412900000067],[-73.573422699999981,45.505386600000065],[-73.57340389999996,45.50535560000003],[-73.57339989999997,45.505325500000026],[-73.573383799999988,45.505301100000054]]},"properties":{"OBJECTID":107,"F_id":"way/143869543","cycleway_both":"no","highway":"footway","lanes":"2","name":"Place Walbrae","name_en":"Pine Avenue West","name_fr":"Avenue des Pins Ouest","surface":"paving_stones","wikidata":"Q2874119","wikipedia":"fr:Avenue des Pins","wikipedia_en":"Pine Avenue","Shape_Length":0.00025571459324812742}},{"type":"Feature","id":108,"geometry":{"type":"LineString","coordinates":[[-73.573239599999965,45.505679800000053],[-73.573203399999954,45.505667100000039]]},"properties":{"OBJECTID":108,"F_id":"way/143873194","cycleway_both":"no","highway":"steps","lanes":"2","name":"Place Walbrae","name_en":"Pine Avenue West","name_fr":"Avenue des Pins Ouest","surface":"paving_stones","wikidata":"Q2874119","wikipedia":"fr:Avenue des Pins","wikipedia_en":"Pine Avenue","Shape_Length":3.8363133359142738e-05}},{"type":"Feature","id":109,"geometry":{"type":"LineString","coordinates":[[-73.573203399999954,45.505667100000039],[-73.57316579999997,45.50568080000005]]},"properties":{"OBJECTID":109,"F_id":"way/143873195","cycleway_both":"no","highway":"footway","lanes":"2","name":"Place Walbrae","name_en":"Pine Avenue West","name_fr":"Avenue des Pins Ouest","surface":"paving_stones","wikidata":"Q2874119","wikipedia":"fr:Avenue des Pins","wikipedia_en":"Pine Avenue","Shape_Length":4.0018120884718436e-05}},{"type":"Feature","id":110,"geometry":{"type":"LineString","coordinates":[[-73.573251499999969,45.505711200000064],[-73.573264599999959,45.505715900000041]]},"properties":{"OBJECTID":110,"F_id":"way/143873198","cycleway_both":"no","highway":"steps","lanes":"2","name":"Place Walbrae","name_en":"Pine Avenue West","name_fr":"Avenue des Pins Ouest","surface":"paving_stones","wikidata":"Q2874119","wikipedia":"fr:Avenue des Pins","wikipedia_en":"Pine Avenue","Shape_Length":1.3917614720589245e-05}},{"type":"Feature","id":113,"geometry":{"type":"LineString","coordinates":[[-73.573251499999969,45.505711200000064],[-73.573239599999965,45.505679800000053]]},"properties":{"OBJECTID":113,"F_id":"way/143873201","cycleway_both":"no","highway":"footway","lanes":"2","name":"Place Walbrae","name_en":"Pine Avenue West","name_fr":"Avenue des Pins Ouest","surface":"paving_stones","wikidata":"Q2874119","wikipedia":"fr:Avenue des Pins","wikipedia_en":"Pine Avenue","Shape_Length":3.357930911781345e-05}},{"type":"Feature","id":114,"geometry":{"type":"LineString","coordinates":[[-73.573173099999963,45.505712000000074],[-73.573209199999951,45.505723500000045]]},"properties":{"OBJECTID":114,"F_id":"way/143873204","cycleway_both":"no","highway":"steps","lanes":"2","name":"Place Walbrae","name_en":"Pine Avenue West","name_fr":"Avenue des Pins Ouest","surface":"paving_stones","wikidata":"Q2874119","wikipedia":"fr:Avenue des Pins","wikipedia_en":"Pine Avenue","Shape_Length":3.7887464925715953e-05}},{"type":"Feature","id":121,"geometry":{"type":"LineString","coordinates":[[-73.573264599999959,45.505715900000041],[-73.57329569999996,45.505726300000049]]},"properties":{"OBJECTID":121,"F_id":"way/143873216","cycleway_both":"no","highway":"footway","lanes":"2","name":"Place Walbrae","name_en":"Pine Avenue West","name_fr":"Avenue des Pins Ouest","surface":"paving_stones","wikidata":"Q2874119","wikipedia":"fr:Avenue des Pins","wikipedia_en":"Pine Avenue","Shape_Length":3.2792834586678142e-05}},{"type":"Feature","id":125,"geometry":{"type":"LineString","coordinates":[[-73.573209199999951,45.505723500000045],[-73.573251499999969,45.505711200000064]]},"properties":{"OBJECTID":125,"F_id":"way/143873220","cycleway_both":"no","highway":"footway","lanes":"2","name":"Place Walbrae","name_en":"Pine Avenue West","name_fr":"Avenue des Pins Ouest","surface":"paving_stones","wikidata":"Q2874119","wikipedia":"fr:Avenue des Pins","wikipedia_en":"Pine Avenue","Shape_Length":4.40520147219214e-05}},{"type":"Feature","id":127,"geometry":{"type":"LineString","coordinates":[[-73.573097899999937,45.505658500000038],[-73.57316579999997,45.50568080000005],[-73.573173099999963,45.505712000000074]]},"properties":{"OBJECTID":127,"F_id":"way/143873816","cycleway_both":"no","highway":"footway","lanes":"2","name":"Place Walbrae","name_en":"Pine Avenue West","name_fr":"Avenue des Pins Ouest","surface":"paving_stones","wikidata":"Q2874119","wikipedia":"fr:Avenue des Pins","wikipedia_en":"Pine Avenue","Shape_Length":0.00010351080264919159}},{"type":"Feature","id":128,"geometry":{"type":"LineString","coordinates":[[-73.577944899999977,45.504162500000064],[-73.57809919999994,45.504238000000043]]},"properties":{"OBJECTID":128,"F_id":"way/143876303","cycleway_both":"no","highway":"steps","lanes":"2","name":"Place Walbrae","name_en":"Pine Avenue West","name_fr":"Avenue des Pins Ouest","surface":"paving_stones","wikidata":"Q2874119","wikipedia":"fr:Avenue des Pins","wikipedia_en":"Pine Avenue","Shape_Length":0.0001717810815704247}},{"type":"Feature","id":129,"geometry":{"type":"LineString","coordinates":[[-73.574280299999941,45.505520600000068],[-73.574340099999972,45.505459200000075]]},"properties":{"OBJECTID":129,"F_id":"way/143924091","cycleway_both":"no","highway":"footway","lanes":"2","name":"Place Walbrae","name_en":"Pine Avenue West","name_fr":"Avenue des Pins Ouest","surface":"paving_stones","wikidata":"Q2874119","wikipedia":"fr:Avenue des Pins","wikipedia_en":"Pine Avenue","Shape_Length":8.5708809365259221e-05}},{"type":"Feature","id":130,"geometry":{"type":"LineString","coordinates":[[-73.577435599999944,45.504243600000052],[-73.577539299999955,45.504126000000042]]},"properties":{"OBJECTID":130,"F_id":"way/143924092","cycleway_both":"no","highway":"footway","lanes":"2","name":"Place Walbrae","name_en":"Pine Avenue West","name_fr":"Avenue des Pins Ouest","surface":"paving_stones","wikidata":"Q2874119","wikipedia":"fr:Avenue des Pins","wikipedia_en":"Pine Avenue","Shape_Length":0.00015679110307874602}},{"type":"Feature","id":132,"geometry":{"type":"LineString","coordinates":[[-73.578109799999936,45.504252800000074],[-73.578346499999952,45.504072700000052]]},"properties":{"OBJECTID":132,"F_id":"way/144012628","cycleway_both":"no","highway":"footway","lanes":"2","name":"Place Walbrae","name_en":"Pine Avenue West","name_fr":"Avenue des Pins Ouest","surface":"paving_stones","wikidata":"Q2874119","wikipedia":"fr:Avenue des Pins","wikipedia_en":"Pine Avenue","Shape_Length":0.00029742713396043705}},{"type":"Feature","id":134,"geometry":{"type":"LineString","coordinates":[[-73.576162099999976,45.50274040000005],[-73.576152399999955,45.502749000000051],[-73.576472199999955,45.502904300000068]]},"properties":{"OBJECTID":134,"F_id":"way/240271954","cycleway_both":"no","highway":"path","lanes":"2","name":"Promenade Sir-William-Osler","name_en":"Pine Avenue West","name_fr":"Avenue des Pins Ouest","surface":"paving_stones","wikidata":"Q2874119","wikipedia":"fr:Avenue des Pins","wikipedia_en":"Pine Avenue","Shape_Length":0.00036847730571853277}},{"type":"Feature","id":139,"geometry":{"type":"LineString","coordinates":[[-73.576632699999948,45.503105100000028],[-73.577354499999956,45.503449400000079],[-73.577711399999941,45.503624700000046],[-73.578082999999936,45.503807700000038],[-73.578219499999989,45.503874900000028],[-73.578292499999975,45.503910800000028],[-73.578314499999976,45.503942700000039],[-73.578335899999956,45.503973700000074]]},"properties":{"OBJECTID":139,"F_id":"way/263901278","cycleway_both":"no","highway":"pedestrian","lanes":"2","name":"Rue McTavish","name_en":"Pine Avenue West","name_fr":"Avenue des Pins Ouest","surface":"paving_stones","wikidata":"Q2874119","wikipedia":"fr:Avenue des Pins","wikipedia_en":"Pine Avenue","Shape_Length":0.0019214700071390198}},{"type":"Feature","id":151,"geometry":{"type":"LineString","coordinates":[[-73.577993899999967,45.506586200000072],[-73.578036199999985,45.506540500000028],[-73.578239699999983,45.506320000000073]]},"properties":{"OBJECTID":151,"F_id":"way/506234601","cycleway_both":"no","highway":"service","lanes":"2","name":"Rue Prince-Arthur Ouest","name_en":"Pine Avenue West","name_fr":"Avenue des Pins Ouest","surface":"asphalt","wikidata":"Q2874119","wikipedia":"fr:Avenue des Pins","wikipedia_en":"Pine Avenue","Shape_Length":0.00036232598527120852}},{"type":"Feature","id":153,"geometry":{"type":"LineString","coordinates":[[-73.574981399999956,45.505006700000081],[-73.574998699999981,45.505015100000037]]},"properties":{"OBJECTID":153,"F_id":"way/649717151","cycleway_both":"no","highway":"steps","lanes":"2","name":"Rue Prince-Arthur Ouest","name_en":"Pine Avenue West","name_fr":"Avenue des Pins Ouest","surface":"asphalt","wikidata":"Q2874119","wikipedia":"fr:Avenue des Pins","wikipedia_en":"Pine Avenue","Shape_Length":1.9231484604954139e-05}},{"type":"Feature","id":154,"geometry":{"type":"LineString","coordinates":[[-73.57480019999997,45.504918900000064],[-73.574820599999953,45.504928800000073]]},"properties":{"OBJECTID":154,"F_id":"way/649717155","cycleway_both":"no","highway":"steps","lanes":"2","name":"Rue Prince-Arthur Ouest","name_en":"Pine Avenue West","name_fr":"Avenue des Pins Ouest","surface":"asphalt","wikidata":"Q2874119","wikipedia":"fr:Avenue des Pins","wikipedia_en":"Pine Avenue","Shape_Length":2.2675316965160992e-05}},{"type":"Feature","id":155,"geometry":{"type":"LineString","coordinates":[[-73.575412699999958,45.50483470000006],[-73.575436399999944,45.504846300000054]]},"properties":{"OBJECTID":155,"F_id":"way/651206790","cycleway_both":"no","highway":"steps","lanes":"2","name":"Rue Prince-Arthur Ouest","name_en":"Pine Avenue West","name_fr":"Avenue des Pins Ouest","surface":"asphalt","wikidata":"Q2874119","wikipedia":"fr:Avenue des Pins","wikipedia_en":"Pine Avenue","Shape_Length":2.6386549588138363e-05}},{"type":"Feature","id":156,"geometry":{"type":"LineString","coordinates":[[-73.575453799999934,45.504854600000044],[-73.57544269999994,45.504849300000046],[-73.575436399999944,45.504846300000054]]},"properties":{"OBJECTID":156,"F_id":"way/651206791","cycleway_both":"no","highway":"footway","lanes":"2","name":"Rue Prince-Arthur Ouest","name_en":"Pine Avenue West","name_fr":"Avenue des Pins Ouest","surface":"concrete:plates","wikidata":"Q2874119","wikipedia":"fr:Avenue des Pins","wikipedia_en":"Pine Avenue","Shape_Length":1.9278228494124203e-05}},{"type":"Feature","id":163,"geometry":{"type":"LineString","coordinates":[[-73.577931599999943,45.507049300000062],[-73.57855079999996,45.507351400000061],[-73.578618499999948,45.507384500000057],[-73.579196799999977,45.507663400000069],[-73.579333399999939,45.507729400000073],[-73.579404899999986,45.507765200000051],[-73.579907999999989,45.50801720000004],[-73.579961899999944,45.508043600000065],[-73.580021299999942,45.508081900000036],[-73.580053199999952,45.508067800000049],[-73.580069899999955,45.508047100000056],[-73.580377199999987,45.507261500000027],[-73.580394299999966,45.507209700000033],[-73.580401199999983,45.507168400000069],[-73.580396899999982,45.507130300000028],[-73.58038229999994,45.507111800000075]]},"properties":{"OBJECTID":163,"F_id":"way/664683494","cycleway_both":"no","highway":"footway","lanes":"2","name":"Rue Prince-Arthur Ouest","name_en":"Pine Avenue West","name_fr":"Avenue des Pins Ouest","surface":"paving_stones","wikidata":"Q2874119","wikipedia":"fr:Avenue des Pins","wikipedia_en":"Pine Avenue","Shape_Length":0.0033947833588407555}},{"type":"Feature","id":165,"geometry":{"type":"LineString","coordinates":[[-73.577252599999952,45.504350500000044],[-73.577315499999941,45.504379000000029]]},"properties":{"OBJECTID":165,"F_id":"way/743546513","cycleway_both":"no","highway":"steps","lanes":"2","name":"Rue Prince-Arthur Ouest","name_en":"Pine Avenue West","name_fr":"Avenue des Pins Ouest","surface":"concrete","wikidata":"Q2874119","wikipedia":"fr:Avenue des Pins","wikipedia_en":"Pine Avenue","Shape_Length":6.9055484921568702e-05}},{"type":"Feature","id":166,"geometry":{"type":"LineString","coordinates":[[-73.577200199999936,45.504325800000061],[-73.577252599999952,45.504350500000044]]},"properties":{"OBJECTID":166,"F_id":"way/743546514","cycleway_both":"no","highway":"service","lanes":"2","name":"Rue Prince-Arthur Ouest","name_en":"Pine Avenue West","name_fr":"Avenue des Pins Ouest","surface":"concrete","wikidata":"Q2874119","wikipedia":"fr:Avenue des Pins","wikipedia_en":"Pine Avenue","Shape_Length":5.7929698780416018e-05}},{"type":"Feature","id":169,"geometry":{"type":"LineString","coordinates":[[-73.579750599999954,45.506862500000068],[-73.579787199999942,45.50682420000004],[-73.579839099999958,45.50676750000008],[-73.579861999999935,45.506741400000067],[-73.579868799999986,45.506733600000075]]},"properties":{"OBJECTID":169,"F_id":"way/945180296","cycleway_both":"no","highway":"footway","lanes":"2","name":"Rue Prince-Arthur Ouest","name_en":"Pine Avenue West","name_fr":"Avenue des Pins Ouest","surface":"concrete","wikidata":"Q2874119","wikipedia":"fr:Avenue des Pins","wikipedia_en":"Pine Avenue","Shape_Length":0.00017491269156763597}},{"type":"Feature","id":170,"geometry":{"type":"LineString","coordinates":[[-73.579868799999986,45.506733600000075],[-73.57990239999998,45.506686500000058]]},"properties":{"OBJECTID":170,"F_id":"way/945180297","cycleway_both":"no","highway":"footway","lanes":"2","name":"Rue Prince-Arthur Ouest","name_en":"Pine Avenue West","name_fr":"Avenue des Pins Ouest","surface":"concrete","wikidata":"Q2874119","wikipedia":"fr:Avenue des Pins","wikipedia_en":"Pine Avenue","Shape_Length":5.7856460324637867e-05}},{"type":"Feature","id":171,"geometry":{"type":"LineString","coordinates":[[-73.579750599999954,45.506862500000068],[-73.579798399999959,45.506885800000077],[-73.579925499999945,45.506946300000038]]},"properties":{"OBJECTID":171,"F_id":"way/945180298","cycleway_both":"no","highway":"footway","lanes":"2","name":"Rue Prince-Arthur Ouest","name_en":"Pine Avenue West","name_fr":"Avenue des Pins Ouest","surface":"concrete","wikidata":"Q2874119","wikipedia":"fr:Avenue des Pins","wikipedia_en":"Pine Avenue","Shape_Length":0.00019394095971820712}},{"type":"Feature","id":172,"geometry":{"type":"LineString","coordinates":[[-73.579491299999972,45.507342100000074],[-73.579452299999957,45.507379700000058],[-73.579409399999975,45.507443500000079],[-73.579394799999989,45.50747860000007],[-73.579378299999973,45.507500800000059],[-73.579372699999965,45.507531700000072],[-73.579328999999973,45.507596300000046],[-73.57931659999997,45.507637500000044],[-73.579314599999975,45.50767060000004],[-73.579333399999939,45.507729400000073]]},"properties":{"OBJECTID":172,"F_id":"way/945180299","cycleway_both":"no","highway":"footway","lanes":"2","name":"Rue Prince-Arthur Ouest","name_en":"Pine Avenue West","name_fr":"Avenue des Pins Ouest","surface":"concrete","wikidata":"Q2874119","wikipedia":"fr:Avenue des Pins","wikipedia_en":"Pine Avenue","Shape_Length":0.00044404536839677967}},{"type":"Feature","id":181,"geometry":{"type":"LineString","coordinates":[[-73.575801499999955,45.504821200000038],[-73.575380699999982,45.504607600000043],[-73.57533559999996,45.50465150000008]]},"properties":{"OBJECTID":181,"F_id":"way/1133269326","cycleway_both":"no","highway":"footway","lanes":"2","name":"Rue Prince-Arthur Ouest","name_en":"Pine Avenue West","name_fr":"Avenue des Pins Ouest","surface":"concrete","wikidata":"Q2874119","wikipedia":"fr:Avenue des Pins","wikipedia_en":"Pine Avenue","Shape_Length":0.0005348466893956087}},{"type":"Feature","id":183,"geometry":{"type":"LineString","coordinates":[[-73.577304599999934,45.505968900000028],[-73.577246299999956,45.505768500000045],[-73.577251399999966,45.505753700000071],[-73.577265299999965,45.50571780000007]]},"properties":{"OBJECTID":183,"F_id":"way/1163714345","cycleway_both":"no","highway":"footway","lanes":"2","name":"Rue Prince-Arthur Ouest","name_en":"Pine Avenue West","name_fr":"Avenue des Pins Ouest","surface":"paving_stones","wikidata":"Q2874119","wikipedia":"fr:Avenue des Pins","wikipedia_en":"Pine Avenue","Shape_Length":0.00026285913545657098}},{"type":"Feature","id":192,"geometry":{"type":"LineString","coordinates":[[-73.580401199999983,45.507168400000069],[-73.579925499999945,45.506946300000038]]},"properties":{"OBJECTID":192,"F_id":"way/1175996882","cycleway_both":"no","highway":"footway","lanes":"2","name":"Rue Prince-Arthur Ouest","name_en":"Pine Avenue West","name_fr":"Avenue des Pins Ouest","surface":"paving_stones","wikidata":"Q2874119","wikipedia":"fr:Avenue des Pins","wikipedia_en":"Pine Avenue","Shape_Length":0.00052499419049149376}},{"type":"Feature","id":193,"geometry":{"type":"LineString","coordinates":[[-73.579750599999954,45.506862500000068],[-73.578884499999958,45.506456700000058],[-73.578786899999955,45.506409900000051],[-73.578739999999982,45.506386200000065],[-73.57869409999995,45.506358900000066],[-73.578648199999975,45.506319700000063],[-73.578571499999953,45.506246500000032],[-73.578520699999956,45.506178400000067],[-73.57846909999995,45.506089100000054],[-73.57844369999998,45.50603140000004],[-73.578431199999955,45.505957800000033],[-73.578417599999966,45.505852700000048],[-73.578406899999948,45.505661400000065],[-73.578391399999987,45.505475200000035],[-73.578377299999943,45.505286500000068],[-73.578354799999943,45.505011800000034],[-73.578340699999956,45.504760800000042],[-73.578313899999955,45.504462900000078]]},"properties":{"OBJECTID":193,"F_id":"way/1175996883","cycleway_both":"no","highway":"footway","lanes":"2","name":"Rue Prince-Arthur Ouest","name_en":"Pine Avenue West","name_fr":"Avenue des Pins Ouest","surface":"paving_stones","wikidata":"Q2874119","wikipedia":"fr:Avenue des Pins","wikipedia_en":"Pine Avenue","Shape_Length":0.0031625896745628573}},{"type":"Feature","id":194,"geometry":{"type":"LineString","coordinates":[[-73.578313899999955,45.504462900000078],[-73.578352099999961,45.504463300000054],[-73.578382999999974,45.504462000000046]]},"properties":{"OBJECTID":194,"F_id":"way/1175996884","cycleway_both":"no","highway":"footway","lanes":"2","name":"Rue Prince-Arthur Ouest","name_en":"Pine Avenue West","name_fr":"Avenue des Pins Ouest","surface":"paving_stones","wikidata":"Q2874119","wikipedia":"fr:Avenue des Pins","wikipedia_en":"Pine Avenue","Shape_Length":6.912942839070512e-05}},{"type":"Feature","id":195,"geometry":{"type":"LineString","coordinates":[[-73.578531399999974,45.504014200000029],[-73.578544499999964,45.503997500000025],[-73.578617699999938,45.503903200000025],[-73.578700199999957,45.503791600000056],[-73.578772799999967,45.503721400000074],[-73.578939799999944,45.503602800000067],[-73.579094899999973,45.50351640000008],[-73.579264099999989,45.503424500000051],[-73.579315599999973,45.503391900000054],[-73.579332099999988,45.50337410000003],[-73.579326499999979,45.503359400000079],[-73.57932169999998,45.503346600000043],[-73.579249299999958,45.503302000000076],[-73.57868469999994,45.50302830000004],[-73.578045499999973,45.502713500000027],[-73.577668199999948,45.502527800000053],[-73.577126999999962,45.502265700000066],[-73.577052099999946,45.502229400000033],[-73.576615499999946,45.502013200000079]]},"properties":{"OBJECTID":195,"F_id":"way/1175996885","cycleway_both":"no","highway":"footway","lanes":"2","name":"Rue Prince-Arthur Ouest","name_en":"Pine Avenue West","name_fr":"Avenue des Pins Ouest","surface":"paving_stones","wikidata":"Q2874119","wikipedia":"fr:Avenue des Pins","wikipedia_en":"Pine Avenue","Shape_Length":0.0040871865873279125}},{"type":"Feature","id":196,"geometry":{"type":"LineString","coordinates":[[-73.580396899999982,45.507130300000028],[-73.58042729999994,45.50706260000004],[-73.580479699999955,45.506946000000028],[-73.580498099999943,45.506905000000074]]},"properties":{"OBJECTID":196,"F_id":"way/1178322456","cycleway_both":"no","highway":"footway","lanes":"2","name":"Rue Prince-Arthur Ouest","name_en":"Pine Avenue West","name_fr":"Avenue des Pins Ouest","surface":"paving_stones","wikidata":"Q2874119","wikipedia":"fr:Avenue des Pins","wikipedia_en":"Pine Avenue","Shape_Length":0.00024698488314493598}},{"type":"Feature","id":197,"geometry":{"type":"LineString","coordinates":[[-73.580242699999985,45.504918300000043],[-73.580283999999949,45.504876600000046],[-73.580322099999989,45.504839000000061]]},"properties":{"OBJECTID":197,"F_id":"way/1178322458","cycleway_both":"no","highway":"footway","lanes":"2","name":"Rue Prince-Arthur Ouest","name_en":"Pine Avenue West","name_fr":"Avenue des Pins Ouest","surface":"paving_stones","wikidata":"Q2874119","wikipedia":"fr:Avenue des Pins","wikipedia_en":"Pine Avenue","Shape_Length":0.00011221969531026465}},{"type":"Feature","id":199,"geometry":{"type":"LineString","coordinates":[[-73.578389199999947,45.50400250000007],[-73.578422499999988,45.504014700000027]]},"properties":{"OBJECTID":199,"F_id":"way/1178322460","cycleway_both":"no","highway":"steps","lanes":"2","name":"Rue Prince-Arthur Ouest","name_en":"Pine Avenue West","name_fr":"Avenue des Pins Ouest","surface":"paving_stones","wikidata":"Q2874119","wikipedia":"fr:Avenue des Pins","wikipedia_en":"Pine Avenue","Shape_Length":3.5464489305506368e-05}},{"type":"Feature","id":200,"geometry":{"type":"LineString","coordinates":[[-73.578496599999937,45.504008700000043],[-73.578531399999974,45.504014200000029]]},"properties":{"OBJECTID":200,"F_id":"way/1178322461","cycleway_both":"no","highway":"footway","lanes":"2","name":"Rue Prince-Arthur Ouest","name_en":"Pine Avenue West","name_fr":"Avenue des Pins Ouest","surface":"paving_stones","wikidata":"Q2874119","wikipedia":"fr:Avenue des Pins","wikipedia_en":"Pine Avenue","Shape_Length":3.5231945765681925e-05}},{"type":"Feature","id":201,"geometry":{"type":"LineString","coordinates":[[-73.578382999999974,45.504462000000046],[-73.578403399999956,45.504461500000048],[-73.578415399999983,45.504365600000028],[-73.578432999999961,45.504267300000038],[-73.578449099999943,45.504210400000034],[-73.578460399999983,45.504170000000045],[-73.578485899999976,45.504114600000037],[-73.57849699999997,45.504084700000078]]},"properties":{"OBJECTID":201,"F_id":"way/1178322462","cycleway_both":"no","highway":"footway","lanes":"2","name":"Rue Prince-Arthur Ouest","name_en":"Pine Avenue West","name_fr":"Avenue des Pins Ouest","surface":"paving_stones","wikidata":"Q2874119","wikipedia":"fr:Avenue des Pins","wikipedia_en":"Pine Avenue","Shape_Length":0.00041088248318917845}},{"type":"Feature","id":202,"geometry":{"type":"LineString","coordinates":[[-73.57856419999996,45.504003100000034],[-73.57861939999998,45.504019300000039],[-73.578688299999953,45.504039500000033],[-73.578661299999965,45.504085100000054],[-73.578633799999977,45.504136300000027],[-73.578568599999983,45.504110800000035],[-73.578518499999973,45.504091500000072]]},"properties":{"OBJECTID":202,"F_id":"way/1178322463","cycleway_both":"no","highway":"footway","lanes":"2","name":"Rue Prince-Arthur Ouest","name_en":"Pine Avenue West","name_fr":"Avenue des Pins Ouest","surface":"paving_stones","wikidata":"Q2874119","wikipedia":"fr:Avenue des Pins","wikipedia_en":"Pine Avenue","Shape_Length":0.00036413814149965668}},{"type":"Feature","id":203,"geometry":{"type":"LineString","coordinates":[[-73.57856419999996,45.504003100000034],[-73.578544499999964,45.503997500000025]]},"properties":{"OBJECTID":203,"F_id":"way/1178322465","cycleway_both":"no","highway":"footway","lanes":"2","name":"Rue Prince-Arthur Ouest","name_en":"Pine Avenue West","name_fr":"Avenue des Pins Ouest","surface":"paving_stones","wikidata":"Q2874119","wikipedia":"fr:Avenue des Pins","wikipedia_en":"Pine Avenue","Shape_Length":2.0480478508285499e-05}},{"type":"Feature","id":204,"geometry":{"type":"LineString","coordinates":[[-73.57849699999997,45.504084700000078],[-73.578518499999973,45.504091500000072]]},"properties":{"OBJECTID":204,"F_id":"way/1178322466","cycleway_both":"no","highway":"footway","lanes":"2","name":"Rue Prince-Arthur Ouest","name_en":"Pine Avenue West","name_fr":"Avenue des Pins Ouest","surface":"paving_stones","wikidata":"Q2874119","wikipedia":"fr:Avenue des Pins","wikipedia_en":"Pine Avenue","Shape_Length":2.2549722837127143e-05}},{"type":"Feature","id":205,"geometry":{"type":"LineString","coordinates":[[-73.57849699999997,45.504084700000078],[-73.578515699999969,45.504040700000076],[-73.578531399999974,45.504014200000029]]},"properties":{"OBJECTID":205,"F_id":"way/1178322467","cycleway_both":"no","highway":"footway","lanes":"2","name":"Rue Prince-Arthur Ouest","name_en":"Pine Avenue West","name_fr":"Avenue des Pins Ouest","surface":"paving_stones","wikidata":"Q2874119","wikipedia":"fr:Avenue des Pins","wikipedia_en":"Pine Avenue","Shape_Length":7.8610513765398518e-05}},{"type":"Feature","id":206,"geometry":{"type":"LineString","coordinates":[[-73.578633799999977,45.504136300000027],[-73.578644699999984,45.50416210000003]]},"properties":{"OBJECTID":206,"F_id":"way/1178322468","cycleway_both":"no","highway":"footway","lanes":"2","name":"Rue Prince-Arthur Ouest","name_en":"Pine Avenue West","name_fr":"Avenue des Pins Ouest","surface":"paving_stones","wikidata":"Q2874119","wikipedia":"fr:Avenue des Pins","wikipedia_en":"Pine Avenue","Shape_Length":2.8008034566926768e-05}},{"type":"Feature","id":207,"geometry":{"type":"LineString","coordinates":[[-73.578582399999959,45.504238100000066],[-73.578598099999965,45.504192300000057],[-73.578608399999951,45.504174900000066],[-73.578622899999971,45.504166400000031],[-73.578644699999984,45.50416210000003],[-73.578662899999983,45.50416720000004],[-73.578755499999943,45.504211300000065],[-73.579318699999988,45.504468000000031],[-73.57945669999998,45.504534400000068]]},"properties":{"OBJECTID":207,"F_id":"way/1178322469","cycleway_both":"no","highway":"footway","lanes":"2","name":"Rue Prince-Arthur Ouest","name_en":"Pine Avenue West","name_fr":"Avenue des Pins Ouest","surface":"paving_stones","wikidata":"Q2874119","wikipedia":"fr:Avenue des Pins","wikipedia_en":"Pine Avenue","Shape_Length":0.0010012155781438156}},{"type":"Feature","id":208,"geometry":{"type":"LineString","coordinates":[[-73.579608299999961,45.504607400000054],[-73.579876199999944,45.504736200000025],[-73.579933199999971,45.504795700000045],[-73.579963299999974,45.504810700000064]]},"properties":{"OBJECTID":208,"F_id":"way/1178322470","cycleway_both":"no","highway":"footway","lanes":"2","name":"Rue Prince-Arthur Ouest","name_en":"Pine Avenue West","name_fr":"Avenue des Pins Ouest","surface":"paving_stones","wikidata":"Q2874119","wikipedia":"fr:Avenue des Pins","wikipedia_en":"Pine Avenue","Shape_Length":0.00041328124516115677}},{"type":"Feature","id":209,"geometry":{"type":"LineString","coordinates":[[-73.57945669999998,45.504534400000068],[-73.579526699999974,45.504568100000029],[-73.579608299999961,45.504607400000054]]},"properties":{"OBJECTID":209,"F_id":"way/1178322471","cycleway_both":"no","highway":"footway","lanes":"2","name":"Rue Prince-Arthur Ouest","name_en":"Pine Avenue West","name_fr":"Avenue des Pins Ouest","surface":"paving_stones","wikidata":"Q2874119","wikipedia":"fr:Avenue des Pins","wikipedia_en":"Pine Avenue","Shape_Length":0.00016826039390780366}},{"type":"Feature","id":210,"geometry":{"type":"LineString","coordinates":[[-73.579963299999974,45.504810700000064],[-73.580140799999981,45.504893700000025],[-73.580242699999985,45.504918300000043],[-73.580397799999957,45.504992000000072],[-73.580440999999951,45.505037400000049],[-73.581039799999985,45.505327500000078],[-73.581061399999953,45.505338600000073],[-73.581072899999981,45.505353700000057],[-73.581074399999977,45.50537950000006],[-73.581032599999958,45.505497500000047],[-73.580748999999969,45.506288500000039],[-73.580597199999943,45.506693000000041],[-73.580530199999941,45.506889200000046],[-73.580520899999954,45.506897800000047],[-73.580498099999943,45.506905000000074],[-73.580475499999977,45.506908400000043],[-73.580448199999978,45.506908900000042],[-73.580422299999952,45.506905900000049],[-73.580276099999935,45.506874100000061],[-73.580134299999941,45.506834800000036],[-73.579939999999965,45.506770700000061],[-73.579911999999979,45.506760200000031],[-73.579861999999935,45.506741400000067],[-73.579821999999979,45.506726300000025],[-73.579716899999937,45.506686500000058],[-73.579474299999958,45.506575000000055],[-73.578916499999934,45.50632070000006],[-73.578876899999955,45.50629900000007],[-73.578807799999936,45.506254700000056],[-73.578745199999958,45.506201200000078],[-73.578699099999938,45.506147700000042],[-73.578660999999954,45.506088200000079],[-73.578642999999943,45.506055900000035],[-73.578616399999987,45.505993400000079],[-73.578593299999966,45.505830900000035],[-73.578578899999968,45.50559480000004],[-73.578558099999952,45.505308300000081],[-73.578534999999988,45.505008700000076],[-73.578528499999948,45.504847300000051],[-73.57851919999996,45.504665700000032],[-73.578529299999957,45.504544100000032],[-73.578542899999945,45.504437100000075],[-73.578582399999959,45.504238100000066]]},"properties":{"OBJECTID":210,"F_id":"way/1178322472","cycleway_both":"no","highway":"footway","lanes":"2","name":"Rue Prince-Arthur Ouest","name_en":"Pine Avenue West","name_fr":"Avenue des Pins Ouest","surface":"paving_stones","wikidata":"Q2874119","wikipedia":"fr:Avenue des Pins","wikipedia_en":"Pine Avenue","Shape_Length":0.0068274721172009358}},{"type":"Feature","id":212,"geometry":{"type":"LineString","coordinates":[[-73.579326499999979,45.503359400000079],[-73.579375899999945,45.503352600000028]]},"properties":{"OBJECTID":212,"F_id":"way/1178322474","cycleway_both":"no","highway":"footway","lanes":"2","name":"Rue Prince-Arthur Ouest","name_en":"Pine Avenue West","name_fr":"Avenue des Pins Ouest","surface":"paving_stones","wikidata":"Q2874119","wikipedia":"fr:Avenue des Pins","wikipedia_en":"Pine Avenue","Shape_Length":4.9865819930663625e-05}},{"type":"Feature","id":213,"geometry":{"type":"LineString","coordinates":[[-73.579513299999974,45.503415100000041],[-73.579520299999956,45.503437800000029]]},"properties":{"OBJECTID":213,"F_id":"way/1178322475","cycleway_both":"no","highway":"footway","lanes":"2","name":"Rue Prince-Arthur Ouest","name_en":"Pine Avenue West","name_fr":"Avenue des Pins Ouest","surface":"paving_stones","wikidata":"Q2874119","wikipedia":"fr:Avenue des Pins","wikipedia_en":"Pine Avenue","Shape_Length":2.3754788974334466e-05}},{"type":"Feature","id":214,"geometry":{"type":"LineString","coordinates":[[-73.579513299999974,45.503415100000041],[-73.579438499999981,45.503382300000055],[-73.579375899999945,45.503352600000028]]},"properties":{"OBJECTID":214,"F_id":"way/1178322476","cycleway_both":"no","highway":"footway","lanes":"2","name":"Rue Prince-Arthur Ouest","name_en":"Pine Avenue West","name_fr":"Avenue des Pins Ouest","surface":"asphalt","wikidata":"Q2874119","wikipedia":"fr:Avenue des Pins","wikipedia_en":"Pine Avenue","Shape_Length":0.0001509636217185338}},{"type":"Feature","id":215,"geometry":{"type":"LineString","coordinates":[[-73.579385399999978,45.503494900000078],[-73.579485799999986,45.503443100000027],[-73.579520299999956,45.503437800000029],[-73.579550799999936,45.503447400000027],[-73.579772499999933,45.50355490000004],[-73.580097799999976,45.503716300000065],[-73.58023959999997,45.503784900000028],[-73.580591599999934,45.503955400000052],[-73.580945199999974,45.504129100000057],[-73.581024899999989,45.50416830000006],[-73.581776299999945,45.504534500000034],[-73.581798599999956,45.504558800000041]]},"properties":{"OBJECTID":215,"F_id":"way/1178322477","cycleway_both":"no","highway":"footway","lanes":"2","name":"Rue Prince-Arthur Ouest","name_en":"Pine Avenue West","name_fr":"Avenue des Pins Ouest","surface":"paving_stones","wikidata":"Q2874119","wikipedia":"fr:Avenue des Pins","wikipedia_en":"Pine Avenue","Shape_Length":0.0026896693775818807}},{"type":"Feature","id":217,"geometry":{"type":"LineString","coordinates":[[-73.581180099999983,45.502040400000055],[-73.581090999999958,45.502001600000028],[-73.581009799999947,45.50196770000008]]},"properties":{"OBJECTID":217,"F_id":"way/1178322487","cycleway_both":"no","highway":"footway","lanes":"2","name":"Rue Prince-Arthur Ouest","name_en":"Pine Avenue West","name_fr":"Avenue des Pins Ouest","surface":"paving_stones","wikidata":"Q2874119","wikipedia":"fr:Avenue des Pins","wikipedia_en":"Pine Avenue","Shape_Length":0.00018517386040251568}},{"type":"Feature","id":220,"geometry":{"type":"LineString","coordinates":[[-73.581145599999957,45.505219500000067],[-73.581126099999949,45.505221300000073],[-73.581104899999957,45.505218300000081],[-73.581069699999944,45.505204400000025],[-73.581032599999958,45.505186200000026],[-73.580554899999981,45.504952100000025],[-73.580322099999989,45.504839000000061],[-73.580130799999949,45.504746000000068],[-73.579696799999965,45.504534000000035],[-73.579489599999988,45.504433100000028]]},"properties":{"OBJECTID":220,"F_id":"way/1178357871","cycleway_both":"no","highway":"footway","lanes":"2","name":"Rue Prince-Arthur Ouest","name_en":"Pine Avenue West","name_fr":"Avenue des Pins Ouest","surface":"paving_stones","wikidata":"Q2874119","wikipedia":"fr:Avenue des Pins","wikipedia_en":"Pine Avenue","Shape_Length":0.0018371409876284113}},{"type":"Feature","id":223,"geometry":{"type":"LineString","coordinates":[[-73.579489599999988,45.504433100000028],[-73.579507099999944,45.504415000000051]]},"properties":{"OBJECTID":223,"F_id":"way/1178357879","cycleway_both":"no","highway":"footway","lanes":"2","name":"Rue Prince-Arthur Ouest","name_en":"Pine Avenue West","name_fr":"Avenue des Pins Ouest","surface":"paving_stones","wikidata":"Q2874119","wikipedia":"fr:Avenue des Pins","wikipedia_en":"Pine Avenue","Shape_Length":2.5176576368172211e-05}},{"type":"Feature","id":224,"geometry":{"type":"LineString","coordinates":[[-73.579489599999988,45.504433100000028],[-73.579287399999941,45.504334700000072],[-73.579206399999975,45.504295200000058],[-73.579142499999989,45.504264100000057],[-73.578755299999955,45.504075400000033],[-73.578735199999983,45.504064000000028],[-73.578718899999956,45.504049900000041],[-73.578712499999938,45.504038800000046],[-73.578688299999953,45.504039500000033]]},"properties":{"OBJECTID":224,"F_id":"way/1178357880","cycleway_both":"no","highway":"footway","lanes":"2","name":"Rue Prince-Arthur Ouest","name_en":"Pine Avenue West","name_fr":"Avenue des Pins Ouest","surface":"paving_stones","wikidata":"Q2874119","wikipedia":"fr:Avenue des Pins","wikipedia_en":"Pine Avenue","Shape_Length":0.00089847301906002602}},{"type":"Feature","id":225,"geometry":{"type":"LineString","coordinates":[[-73.580963999999938,45.504112500000076],[-73.580998099999988,45.504079200000035],[-73.581033099999956,45.504044900000054]]},"properties":{"OBJECTID":225,"F_id":"way/1178357881","cycleway_both":"no","highway":"footway","lanes":"2","name":"Rue Prince-Arthur Ouest","name_en":"Pine Avenue West","name_fr":"Avenue des Pins Ouest","surface":"paving_stones","wikidata":"Q2874119","wikipedia":"fr:Avenue des Pins","wikipedia_en":"Pine Avenue","Shape_Length":9.6667353891450285e-05}},{"type":"Feature","id":226,"geometry":{"type":"LineString","coordinates":[[-73.580963999999938,45.504112500000076],[-73.580945199999974,45.504129100000057]]},"properties":{"OBJECTID":226,"F_id":"way/1178357882","cycleway_both":"no","highway":"footway","lanes":"2","name":"Rue Prince-Arthur Ouest","name_en":"Pine Avenue West","name_fr":"Avenue des Pins Ouest","surface":"paving_stones","wikidata":"Q2874119","wikipedia":"fr:Avenue des Pins","wikipedia_en":"Pine Avenue","Shape_Length":2.5079872368219866e-05}},{"type":"Feature","id":227,"geometry":{"type":"LineString","coordinates":[[-73.581033099999956,45.504044900000054],[-73.581050699999935,45.504024900000047]]},"properties":{"OBJECTID":227,"F_id":"way/1178357883","cycleway_both":"no","highway":"footway","lanes":"2","name":"Rue Prince-Arthur Ouest","name_en":"Pine Avenue West","name_fr":"Avenue des Pins Ouest","surface":"paving_stones","wikidata":"Q2874119","wikipedia":"fr:Avenue des Pins","wikipedia_en":"Pine Avenue","Shape_Length":2.6641321278985933e-05}},{"type":"Feature","id":229,"geometry":{"type":"LineString","coordinates":[[-73.582405599999959,45.502617300000054],[-73.582358899999974,45.502594000000045],[-73.582303599999989,45.502566500000057]]},"properties":{"OBJECTID":229,"F_id":"way/1178357885","cycleway_both":"no","highway":"footway","lanes":"2","name":"Rue Prince-Arthur Ouest","name_en":"Pine Avenue West","name_fr":"Avenue des Pins Ouest","surface":"paving_stones","wikidata":"Q2874119","wikipedia":"fr:Avenue des Pins","wikipedia_en":"Pine Avenue","Shape_Length":0.00011395018899055555}},{"type":"Feature","id":230,"geometry":{"type":"LineString","coordinates":[[-73.582303599999989,45.502566500000057],[-73.581218299999989,45.502048700000046],[-73.581205999999952,45.502046200000052],[-73.581187999999941,45.502048200000047],[-73.581180099999983,45.502040400000055]]},"properties":{"OBJECTID":230,"F_id":"way/1178357886","cycleway_both":"no","highway":"footway","lanes":"2","name":"Rue Prince-Arthur Ouest","name_en":"Pine Avenue West","name_fr":"Avenue des Pins Ouest","surface":"paving_stones","wikidata":"Q2874119","wikipedia":"fr:Avenue des Pins","wikipedia_en":"Pine Avenue","Shape_Length":0.0012442585274069495}},{"type":"Feature","id":231,"geometry":{"type":"LineString","coordinates":[[-73.581187999999941,45.502048200000047],[-73.581169699999975,45.502056000000039],[-73.581152599999939,45.502070100000026],[-73.581038799999988,45.502183800000068],[-73.580855999999983,45.502356600000041],[-73.580724799999984,45.502464900000064],[-73.580600499999946,45.502567400000032],[-73.580566299999987,45.502595600000063],[-73.580519399999957,45.502632500000061],[-73.580473499999982,45.50266860000005],[-73.580259399999989,45.502837100000079],[-73.579823299999987,45.503158900000074],[-73.579674399999988,45.503286400000036],[-73.579660199999978,45.503305600000033],[-73.579658099999961,45.503326000000072],[-73.579665399999953,45.503345200000069],[-73.579690599999935,45.503365600000052],[-73.579763399999933,45.503400700000043],[-73.580025699999965,45.503526700000066],[-73.580335199999979,45.503681500000027],[-73.580701099999942,45.503857800000048],[-73.581050699999935,45.504024900000047]]},"properties":{"OBJECTID":231,"F_id":"way/1178357887","cycleway_both":"no","highway":"footway","lanes":"2","name":"Rue Prince-Arthur Ouest","name_en":"Pine Avenue West","name_fr":"Avenue des Pins Ouest","surface":"paving_stones","wikidata":"Q2874119","wikipedia":"fr:Avenue des Pins","wikipedia_en":"Pine Avenue","Shape_Length":0.0035674224080810366}},{"type":"Feature","id":232,"geometry":{"type":"LineString","coordinates":[[-73.581050699999935,45.504024900000047],[-73.581187299999954,45.50388300000003],[-73.581363999999951,45.503698600000064],[-73.581404299999974,45.503659000000027]]},"properties":{"OBJECTID":232,"F_id":"way/1178357888","cycleway_both":"no","highway":"footway","lanes":"2","name":"Rue Prince-Arthur Ouest","name_en":"Pine Avenue West","name_fr":"Avenue des Pins Ouest","surface":"concrete","wikidata":"Q2874119","wikipedia":"fr:Avenue des Pins","wikipedia_en":"Pine Avenue","Shape_Length":0.00050885919838123013}},{"type":"Feature","id":235,"geometry":{"type":"LineString","coordinates":[[-73.581404299999974,45.503659000000027],[-73.581458199999986,45.503597700000057]]},"properties":{"OBJECTID":235,"F_id":"way/1178357891","cycleway_both":"no","highway":"footway","lanes":"2","name":"Rue Prince-Arthur Ouest","name_en":"Pine Avenue West","name_fr":"Avenue des Pins Ouest","surface":"concrete","wikidata":"Q2874119","wikipedia":"fr:Avenue des Pins","wikipedia_en":"Pine Avenue","Shape_Length":8.1626588790782319e-05}},{"type":"Feature","id":236,"geometry":{"type":"LineString","coordinates":[[-73.581458199999986,45.503597700000057],[-73.581771999999944,45.50326380000007]]},"properties":{"OBJECTID":236,"F_id":"way/1178357892","cycleway_both":"no","highway":"footway","lanes":"2","name":"Rue Prince-Arthur Ouest","name_en":"Pine Avenue West","name_fr":"Avenue des Pins Ouest","surface":"concrete","wikidata":"Q2874119","wikipedia":"fr:Avenue des Pins","wikipedia_en":"Pine Avenue","Shape_Length":0.00045821354188296451}},{"type":"Feature","id":237,"geometry":{"type":"LineString","coordinates":[[-73.581771999999944,45.50326380000007],[-73.581908199999987,45.503122000000076]]},"properties":{"OBJECTID":237,"F_id":"way/1178357893","cycleway_both":"no","highway":"footway","lanes":"2","name":"Rue Prince-Arthur Ouest","name_en":"Pine Avenue West","name_fr":"Avenue des Pins Ouest","surface":"concrete","wikidata":"Q2874119","wikipedia":"fr:Avenue des Pins","wikipedia_en":"Pine Avenue","Shape_Length":0.00019661556400763039}},{"type":"Feature","id":239,"geometry":{"type":"LineString","coordinates":[[-73.581050699999935,45.504024900000047],[-73.581106499999976,45.504052100000081],[-73.581892699999969,45.504435500000056],[-73.581938599999944,45.504454000000067]]},"properties":{"OBJECTID":239,"F_id":"way/1178357895","cycleway_both":"no","highway":"footway","lanes":"2","name":"Rue Prince-Arthur Ouest","name_en":"Pine Avenue West","name_fr":"Avenue des Pins Ouest","surface":"concrete","wikidata":"Q2874119","wikipedia":"fr:Avenue des Pins","wikipedia_en":"Pine Avenue","Shape_Length":0.00098626776118330029}},{"type":"Feature","id":240,"geometry":{"type":"LineString","coordinates":[[-73.578712499999938,45.504038800000046],[-73.578707699999939,45.504024400000048],[-73.578712099999962,45.504005600000028],[-73.578765099999941,45.503937600000029],[-73.578835899999945,45.503854900000078],[-73.578911199999936,45.50379410000005],[-73.57901899999996,45.503716700000041],[-73.579119799999944,45.503655500000036],[-73.579385399999978,45.503494900000078]]},"properties":{"OBJECTID":240,"F_id":"way/1178369652","cycleway_both":"no","highway":"footway","lanes":"2","name":"Rue Prince-Arthur Ouest","name_en":"Pine Avenue West","name_fr":"Avenue des Pins Ouest","surface":"concrete","wikidata":"Q2874119","wikipedia":"fr:Avenue des Pins","wikipedia_en":"Pine Avenue","Shape_Length":0.000887362955548221}},{"type":"Feature","id":385,"geometry":{"type":"LineString","coordinates":[[-73.579372699999965,45.507531700000072],[-73.579454799999951,45.507570200000032]]},"properties":{"OBJECTID":385,"F_id":"way/1186873226","cycleway_both":"no","highway":"footway","lanes":"2","name":"Rue Prince-Arthur Ouest","name_en":"Pine Avenue West","name_fr":"Avenue des Pins Ouest","surface":"concrete","wikidata":"Q2874119","wikipedia":"fr:Avenue des Pins","wikipedia_en":"Pine Avenue","Shape_Length":9.0678883950956555e-05}},{"type":"Feature","id":386,"geometry":{"type":"LineString","coordinates":[[-73.579438599999946,45.507497000000058],[-73.579394799999989,45.50747860000007]]},"properties":{"OBJECTID":386,"F_id":"way/1186873227","cycleway_both":"no","highway":"footway","lanes":"2","name":"Rue Prince-Arthur Ouest","name_en":"Pine Avenue West","name_fr":"Avenue des Pins Ouest","surface":"concrete","wikidata":"Q2874119","wikipedia":"fr:Avenue des Pins","wikipedia_en":"Pine Avenue","Shape_Length":4.750789403703061e-05}},{"type":"Feature","id":387,"geometry":{"type":"LineString","coordinates":[[-73.579438599999946,45.507497000000058],[-73.579506099999946,45.507530900000063]]},"properties":{"OBJECTID":387,"F_id":"way/1186873228","cycleway_both":"no","highway":"steps","lanes":"2","name":"Rue Prince-Arthur Ouest","name_en":"Pine Avenue West","name_fr":"Avenue des Pins Ouest","surface":"concrete","wikidata":"Q2874119","wikipedia":"fr:Avenue des Pins","wikipedia_en":"Pine Avenue","Shape_Length":7.5534495433398868e-05}},{"type":"Feature","id":388,"geometry":{"type":"LineString","coordinates":[[-73.579506099999946,45.507530900000063],[-73.579559999999958,45.507556000000079]]},"properties":{"OBJECTID":388,"F_id":"way/1186873229","cycleway_both":"no","highway":"footway","lanes":"2","name":"Rue Prince-Arthur Ouest","name_en":"Pine Avenue West","name_fr":"Avenue des Pins Ouest","surface":"concrete","wikidata":"Q2874119","wikipedia":"fr:Avenue des Pins","wikipedia_en":"Pine Avenue","Shape_Length":5.9457716085264188e-05}},{"type":"Feature","id":389,"geometry":{"type":"LineString","coordinates":[[-73.579378299999973,45.507500800000059],[-73.579342599999961,45.507511600000043]]},"properties":{"OBJECTID":389,"F_id":"way/1186873230","cycleway_both":"no","highway":"footway","lanes":"2","name":"Rue Prince-Arthur Ouest","name_en":"Pine Avenue West","name_fr":"Avenue des Pins Ouest","surface":"concrete","wikidata":"Q2874119","wikipedia":"fr:Avenue des Pins","wikipedia_en":"Pine Avenue","Shape_Length":3.7297855173274356e-05}},{"type":"Feature","id":390,"geometry":{"type":"LineString","coordinates":[[-73.579342599999961,45.507511600000043],[-73.57926249999997,45.507594300000051]]},"properties":{"OBJECTID":390,"F_id":"way/1186873231","cycleway_both":"no","highway":"steps","lanes":"2","name":"Rue Prince-Arthur Ouest","name_en":"Pine Avenue West","name_fr":"Avenue des Pins Ouest","surface":"concrete","wikidata":"Q2874119","wikipedia":"fr:Avenue des Pins","wikipedia_en":"Pine Avenue","Shape_Length":0.00011513166375830703}},{"type":"Feature","id":391,"geometry":{"type":"LineString","coordinates":[[-73.57926249999997,45.507594300000051],[-73.579196799999977,45.507663400000069]]},"properties":{"OBJECTID":391,"F_id":"way/1186873232","cycleway_both":"no","highway":"footway","lanes":"2","name":"Rue Prince-Arthur Ouest","name_en":"Pine Avenue West","name_fr":"Avenue des Pins Ouest","surface":"concrete","wikidata":"Q2874119","wikipedia":"fr:Avenue des Pins","wikipedia_en":"Pine Avenue","Shape_Length":9.5348308856092281e-05}},{"type":"Feature","id":392,"geometry":{"type":"LineString","coordinates":[[-73.577804699999945,45.506908800000076],[-73.577753799999982,45.506961800000056]]},"properties":{"OBJECTID":392,"F_id":"way/1186873233","cycleway_both":"no","highway":"footway","lanes":"2","name":"Rue Prince-Arthur Ouest","name_en":"Pine Avenue West","name_fr":"Avenue des Pins Ouest","surface":"concrete","wikidata":"Q2874119","wikipedia":"fr:Avenue des Pins","wikipedia_en":"Pine Avenue","Shape_Length":7.3483399445337593e-05}},{"type":"Feature","id":399,"geometry":{"type":"LineString","coordinates":[[-73.577994099999955,45.506521300000031],[-73.578036199999985,45.506540500000028],[-73.578072799999973,45.506557100000066]]},"properties":{"OBJECTID":399,"F_id":"way/1186873240","cycleway_both":"no","highway":"footway","lanes":"2","name":"Rue Prince-Arthur Ouest","name_en":"Pine Avenue West","name_fr":"Avenue des Pins Ouest","surface":"asphalt","wikidata":"Q2874119","wikipedia":"fr:Avenue des Pins","wikipedia_en":"Pine Avenue","Shape_Length":8.6460037112728983e-05}},{"type":"Feature","id":400,"geometry":{"type":"LineString","coordinates":[[-73.578072799999973,45.506557100000066],[-73.578507399999978,45.506753700000047]]},"properties":{"OBJECTID":400,"F_id":"way/1186873241","cycleway_both":"no","highway":"footway","lanes":"2","name":"Rue Prince-Arthur Ouest","name_en":"Pine Avenue West","name_fr":"Avenue des Pins Ouest","surface":"concrete:plates","wikidata":"Q2874119","wikipedia":"fr:Avenue des Pins","wikipedia_en":"Pine Avenue","Shape_Length":0.00047699970649609251}},{"type":"Feature","id":401,"geometry":{"type":"LineString","coordinates":[[-73.578507399999978,45.506753700000047],[-73.579057999999975,45.507013800000038]]},"properties":{"OBJECTID":401,"F_id":"way/1186873242","cycleway_both":"no","highway":"footway","lanes":"2","name":"Rue Prince-Arthur Ouest","name_en":"Pine Avenue West","name_fr":"Avenue des Pins Ouest","surface":"concrete:plates","wikidata":"Q2874119","wikipedia":"fr:Avenue des Pins","wikipedia_en":"Pine Avenue","Shape_Length":0.00060894365091691089}},{"type":"Feature","id":402,"geometry":{"type":"LineString","coordinates":[[-73.579076199999975,45.507029900000077],[-73.579198199999951,45.507090500000061]]},"properties":{"OBJECTID":402,"F_id":"way/1186873243","cycleway_both":"no","highway":"steps","lanes":"2","name":"Rue Prince-Arthur Ouest","name_en":"Pine Avenue West","name_fr":"Avenue des Pins Ouest","surface":"concrete:plates","wikidata":"Q2874119","wikipedia":"fr:Avenue des Pins","wikipedia_en":"Pine Avenue","Shape_Length":0.00013622173098365391}},{"type":"Feature","id":403,"geometry":{"type":"LineString","coordinates":[[-73.579076199999975,45.507029900000077],[-73.579049299999951,45.507054400000072],[-73.57906399999996,45.50706230000003]]},"properties":{"OBJECTID":403,"F_id":"way/1186873244","cycleway_both":"no","highway":"footway","lanes":"2","name":"Rue Prince-Arthur Ouest","name_en":"Pine Avenue West","name_fr":"Avenue des Pins Ouest","surface":"concrete:plates","wikidata":"Q2874119","wikipedia":"fr:Avenue des Pins","wikipedia_en":"Pine Avenue","Shape_Length":5.3073206241569285e-05}},{"type":"Feature","id":404,"geometry":{"type":"LineString","coordinates":[[-73.579079499999978,45.507094800000061],[-73.579074599999956,45.507099900000071]]},"properties":{"OBJECTID":404,"F_id":"way/1186873245","cycleway_both":"no","highway":"footway","lanes":"2","name":"Rue Prince-Arthur Ouest","name_en":"Pine Avenue West","name_fr":"Avenue des Pins Ouest","surface":"concrete:plates","wikidata":"Q2874119","wikipedia":"fr:Avenue des Pins","wikipedia_en":"Pine Avenue","Shape_Length":7.0724819062040543e-06}},{"type":"Feature","id":405,"geometry":{"type":"LineString","coordinates":[[-73.579265299999975,45.507210400000076],[-73.579183699999987,45.507206900000028]]},"properties":{"OBJECTID":405,"F_id":"way/1186873246","cycleway_both":"no","highway":"footway","lanes":"2","name":"Rue Prince-Arthur Ouest","name_en":"Pine Avenue West","name_fr":"Avenue des Pins Ouest","surface":"concrete:plates","wikidata":"Q2874119","wikipedia":"fr:Avenue des Pins","wikipedia_en":"Pine Avenue","Shape_Length":8.1675026772293305e-05}},{"type":"Feature","id":406,"geometry":{"type":"LineString","coordinates":[[-73.579183699999987,45.507206900000028],[-73.579142199999978,45.507186600000068]]},"properties":{"OBJECTID":406,"F_id":"way/1186873247","cycleway_both":"no","highway":"steps","lanes":"2","name":"Rue Prince-Arthur Ouest","name_en":"Pine Avenue West","name_fr":"Avenue des Pins Ouest","surface":"concrete:plates","wikidata":"Q2874119","wikipedia":"fr:Avenue des Pins","wikipedia_en":"Pine Avenue","Shape_Length":4.6198917726719482e-05}},{"type":"Feature","id":407,"geometry":{"type":"LineString","coordinates":[[-73.579142199999978,45.507186600000068],[-73.579047099999968,45.50711780000006],[-73.579023199999938,45.50708480000003]]},"properties":{"OBJECTID":407,"F_id":"way/1186873248","cycleway_both":"no","highway":"footway","lanes":"2","name":"Rue Prince-Arthur Ouest","name_en":"Pine Avenue West","name_fr":"Avenue des Pins Ouest","surface":"concrete:plates","wikidata":"Q2874119","wikipedia":"fr:Avenue des Pins","wikipedia_en":"Pine Avenue","Shape_Length":0.00015812305750244275}},{"type":"Feature","id":408,"geometry":{"type":"LineString","coordinates":[[-73.579079499999978,45.507094800000061],[-73.579097499999989,45.507077300000049],[-73.57906399999996,45.50706230000003]]},"properties":{"OBJECTID":408,"F_id":"way/1186873250","cycleway_both":"no","highway":"steps","lanes":"2","name":"Rue Prince-Arthur Ouest","name_en":"Pine Avenue West","name_fr":"Avenue des Pins Ouest","surface":"concrete:plates","wikidata":"Q2874119","wikipedia":"fr:Avenue des Pins","wikipedia_en":"Pine Avenue","Shape_Length":6.1809684777048722e-05}},{"type":"Feature","id":412,"geometry":{"type":"LineString","coordinates":[[-73.577994099999955,45.506521300000031],[-73.577843399999949,45.506455200000062]]},"properties":{"OBJECTID":412,"F_id":"way/1186873257","cycleway_both":"no","highway":"footway","lanes":"2","name":"Rue Prince-Arthur Ouest","name_en":"Pine Avenue West","name_fr":"Avenue des Pins Ouest","surface":"concrete:plates","wikidata":"Q2874119","wikipedia":"fr:Avenue des Pins","wikipedia_en":"Pine Avenue","Shape_Length":0.00016455910791505181}},{"type":"Feature","id":413,"geometry":{"type":"LineString","coordinates":[[-73.577899999999943,45.506543200000067],[-73.577877399999977,45.506567500000074]]},"properties":{"OBJECTID":413,"F_id":"way/1186873258","cycleway_both":"no","highway":"footway","lanes":"2","name":"Rue Prince-Arthur Ouest","name_en":"Pine Avenue West","name_fr":"Avenue des Pins Ouest","surface":"paving_stones","wikidata":"Q2874119","wikipedia":"fr:Avenue des Pins","wikipedia_en":"Pine Avenue","Shape_Length":3.3185086993739511e-05}},{"type":"Feature","id":417,"geometry":{"type":"LineString","coordinates":[[-73.576337999999964,45.50468630000006],[-73.576397399999962,45.504631500000073]]},"properties":{"OBJECTID":417,"F_id":"way/1192491124","cycleway_both":"no","highway":"footway","lanes":"2","name":"Rue Prince-Arthur Ouest","name_en":"Pine Avenue West","name_fr":"Avenue des Pins Ouest","surface":"paving_stones","wikidata":"Q2874119","wikipedia":"fr:Avenue des Pins","wikipedia_en":"Pine Avenue","Shape_Length":8.0817077392612266e-05}},{"type":"Feature","id":420,"geometry":{"type":"LineString","coordinates":[[-73.579513299999974,45.503415100000041],[-73.57956779999995,45.503381600000068],[-73.579658099999961,45.503326000000072],[-73.579569899999967,45.503286600000081],[-73.579495299999962,45.50325330000004],[-73.579421699999955,45.503314500000045],[-73.579375899999945,45.503352600000028]]},"properties":{"OBJECTID":420,"F_id":"way/1192492882","cycleway_both":"no","highway":"footway","lanes":"2","name":"Rue Prince-Arthur Ouest","name_en":"Pine Avenue West","name_fr":"Avenue des Pins Ouest","surface":"asphalt","wikidata":"Q2874119","wikipedia":"fr:Avenue des Pins","wikipedia_en":"Pine Avenue","Shape_Length":0.00050360829110567917}},{"type":"Feature","id":421,"geometry":{"type":"LineString","coordinates":[[-73.580473499999982,45.50266860000005],[-73.580398499999944,45.502617900000075],[-73.580336799999941,45.502576200000078],[-73.580398499999944,45.50252770000003],[-73.580459899999937,45.502479500000049],[-73.580520699999965,45.502517500000067],[-73.580600499999946,45.502567400000032]]},"properties":{"OBJECTID":421,"F_id":"way/1192492883","cycleway_both":"no","highway":"footway","lanes":"2","name":"Rue Prince-Arthur Ouest","name_en":"Pine Avenue West","name_fr":"Avenue des Pins Ouest","surface":"asphalt","wikidata":"Q2874119","wikipedia":"fr:Avenue des Pins","wikipedia_en":"Pine Avenue","Shape_Length":0.00048735355105682164}},{"type":"Feature","id":433,"geometry":{"type":"LineString","coordinates":[[-73.576397399999962,45.504631500000073],[-73.57644879999998,45.504657300000076]]},"properties":{"OBJECTID":433,"F_id":"way/1218387314","cycleway_both":"no","highway":"service","lanes":"2","name":"Rue University","name_en":"Pine Avenue West","name_fr":"Avenue des Pins Ouest","surface":"paving_stones","wikidata":"Q2874119","wikipedia":"fr:Avenue des Pins","wikipedia_en":"Pine Avenue","Shape_Length":5.7511737949840109e-05}},{"type":"Feature","id":436,"geometry":{"type":"LineString","coordinates":[[-73.577115699999979,45.505648700000052],[-73.577092099999959,45.505692200000055]]},"properties":{"OBJECTID":436,"F_id":"way/1218387330","cycleway_both":"no","highway":"footway","lanes":"2","name":"Rue University","name_en":"Pine Avenue West","name_fr":"Avenue des Pins Ouest","surface":"paving_stones","wikidata":"Q2874119","wikipedia":"fr:Avenue des Pins","wikipedia_en":"Pine Avenue","Shape_Length":4.9489493847478848e-05}},{"type":"Feature","id":437,"geometry":{"type":"LineString","coordinates":[[-73.577092099999959,45.505692200000055],[-73.577074999999979,45.505713300000025]]},"properties":{"OBJECTID":437,"F_id":"way/1218387331","cycleway_both":"no","highway":"steps","lanes":"2","name":"Rue University","name_en":"Pine Avenue West","name_fr":"Avenue des Pins Ouest","surface":"paving_stones","wikidata":"Q2874119","wikipedia":"fr:Avenue des Pins","wikipedia_en":"Pine Avenue","Shape_Length":2.7159160480628117e-05}},{"type":"Feature","id":438,"geometry":{"type":"LineString","coordinates":[[-73.577074999999979,45.505713300000025],[-73.577075599999944,45.505737000000067]]},"properties":{"OBJECTID":438,"F_id":"way/1218387332","cycleway_both":"no","highway":"footway","lanes":"2","name":"Rue University","name_en":"Pine Avenue West","name_fr":"Avenue des Pins Ouest","surface":"paving_stones","wikidata":"Q2874119","wikipedia":"fr:Avenue des Pins","wikipedia_en":"Pine Avenue","Shape_Length":2.370759376172271e-05}},{"type":"Feature","id":439,"geometry":{"type":"LineString","coordinates":[[-73.577075599999944,45.505737000000067],[-73.577060099999983,45.505755800000031]]},"properties":{"OBJECTID":439,"F_id":"way/1218387333","cycleway_both":"no","highway":"steps","lanes":"2","name":"Rue University","name_en":"Pine Avenue West","name_fr":"Avenue des Pins Ouest","surface":"paving_stones","wikidata":"Q2874119","wikipedia":"fr:Avenue des Pins","wikipedia_en":"Pine Avenue","Shape_Length":2.4365754604149164e-05}},{"type":"Feature","id":440,"geometry":{"type":"LineString","coordinates":[[-73.577009099999941,45.505882500000041],[-73.576782899999955,45.505886400000065]]},"properties":{"OBJECTID":440,"F_id":"way/1218387340","cycleway_both":"no","highway":"footway","lanes":"2","name":"Rue University","name_en":"Pine Avenue West","name_fr":"Avenue des Pins Ouest","surface":"paving_stones","wikidata":"Q2874119","wikipedia":"fr:Avenue des Pins","wikipedia_en":"Pine Avenue","Shape_Length":0.00022623361817784724}},{"type":"Feature","id":443,"geometry":{"type":"LineString","coordinates":[[-73.576833399999941,45.505713200000059],[-73.576786199999958,45.505810100000076],[-73.576779499999986,45.505864400000064],[-73.576782899999955,45.505886400000065],[-73.576788399999941,45.505921500000056],[-73.576814299999967,45.50600890000004]]},"properties":{"OBJECTID":443,"F_id":"way/1218387344","cycleway_both":"no","highway":"service","lanes":"2","name":"Rue University","name_en":"Pine Avenue West","name_fr":"Avenue des Pins Ouest","surface":"paving_stones","wikidata":"Q2874119","wikipedia":"fr:Avenue des Pins","wikipedia_en":"Pine Avenue","Shape_Length":0.00031144238398746833}},{"type":"Feature","id":446,"geometry":{"type":"LineString","coordinates":[[-73.57771299999996,45.505033500000081],[-73.57765459999996,45.505004600000063]]},"properties":{"OBJECTID":446,"F_id":"way/1218387356","cycleway_both":"no","highway":"footway","lanes":"2","name":"Rue University","name_en":"Pine Avenue West","name_fr":"Avenue des Pins Ouest","surface":"paving_stones","wikidata":"Q2874119","wikipedia":"fr:Avenue des Pins","wikipedia_en":"Pine Avenue","Shape_Length":6.5159573364778958e-05}},{"type":"Feature","id":447,"geometry":{"type":"LineString","coordinates":[[-73.577643999999964,45.505000000000052],[-73.577609399999972,45.504985200000078]]},"properties":{"OBJECTID":447,"F_id":"way/1218387357","cycleway_both":"no","highway":"footway","lanes":"2","name":"Rue University","name_en":"Pine Avenue West","name_fr":"Avenue des Pins Ouest","surface":"paving_stones","wikidata":"Q2874119","wikipedia":"fr:Avenue des Pins","wikipedia_en":"Pine Avenue","Shape_Length":3.7632432803266663e-05}},{"type":"Feature","id":448,"geometry":{"type":"LineString","coordinates":[[-73.577736999999956,45.505047200000035],[-73.57771299999996,45.505033500000081]]},"properties":{"OBJECTID":448,"F_id":"way/1218387358","cycleway_both":"no","highway":"steps","lanes":"2","name":"Rue University","name_en":"Pine Avenue West","name_fr":"Avenue des Pins Ouest","surface":"paving_stones","wikidata":"Q2874119","wikipedia":"fr:Avenue des Pins","wikipedia_en":"Pine Avenue","Shape_Length":2.7634941623978842e-05}},{"type":"Feature","id":449,"geometry":{"type":"LineString","coordinates":[[-73.57765459999996,45.505004600000063],[-73.577643999999964,45.505000000000052]]},"properties":{"OBJECTID":449,"F_id":"way/1218387359","cycleway_both":"no","highway":"steps","lanes":"2","name":"Rue University","name_en":"Pine Avenue West","name_fr":"Avenue des Pins Ouest","surface":"paving_stones","wikidata":"Q2874119","wikipedia":"fr:Avenue des Pins","wikipedia_en":"Pine Avenue","Shape_Length":1.1555085461259245e-05}},{"type":"Feature","id":450,"geometry":{"type":"LineString","coordinates":[[-73.57820959999998,45.506095200000061],[-73.578116799999975,45.506193900000028],[-73.578175099999953,45.506222900000068],[-73.578129699999977,45.506272300000035]]},"properties":{"OBJECTID":450,"F_id":"way/1218387364","cycleway_both":"no","highway":"steps","lanes":"2","name":"Rue University","name_en":"Pine Avenue West","name_fr":"Avenue des Pins Ouest","surface":"paving_stones","wikidata":"Q2874119","wikipedia":"fr:Avenue des Pins","wikipedia_en":"Pine Avenue","Shape_Length":0.00026768300612148543}},{"type":"Feature","id":451,"geometry":{"type":"LineString","coordinates":[[-73.578074799999968,45.506332100000066],[-73.57798809999997,45.506298900000047],[-73.577843399999949,45.506455200000062]]},"properties":{"OBJECTID":451,"F_id":"way/1218387365","cycleway_both":"no","highway":"footway","lanes":"2","name":"Rue University","name_en":"Pine Avenue West","name_fr":"Avenue des Pins Ouest","surface":"paving_stones","wikidata":"Q2874119","wikipedia":"fr:Avenue des Pins","wikipedia_en":"Pine Avenue","Shape_Length":0.00030583640586851179}},{"type":"Feature","id":452,"geometry":{"type":"LineString","coordinates":[[-73.578102599999966,45.506300300000078],[-73.578074799999968,45.506332100000066]]},"properties":{"OBJECTID":452,"F_id":"way/1218387366","cycleway_both":"no","highway":"steps","lanes":"2","name":"Rue University","name_en":"Pine Avenue West","name_fr":"Avenue des Pins Ouest","surface":"paving_stones","wikidata":"Q2874119","wikipedia":"fr:Avenue des Pins","wikipedia_en":"Pine Avenue","Shape_Length":4.223837117032503e-05}},{"type":"Feature","id":453,"geometry":{"type":"LineString","coordinates":[[-73.578129699999977,45.506272300000035],[-73.578102599999966,45.506300300000078]]},"properties":{"OBJECTID":453,"F_id":"way/1218387367","cycleway_both":"no","highway":"footway","lanes":"2","name":"Rue University","name_en":"Pine Avenue West","name_fr":"Avenue des Pins Ouest","surface":"paving_stones","wikidata":"Q2874119","wikipedia":"fr:Avenue des Pins","wikipedia_en":"Pine Avenue","Shape_Length":3.8966780762753657e-05}},{"type":"Feature","id":454,"geometry":{"type":"LineString","coordinates":[[-73.57844369999998,45.50603140000004],[-73.57820959999998,45.506095200000061]]},"properties":{"OBJECTID":454,"F_id":"way/1218387368","cycleway_both":"no","highway":"footway","lanes":"2","name":"Rue University","name_en":"Pine Avenue West","name_fr":"Avenue des Pins Ouest","surface":"paving_stones","wikidata":"Q2874119","wikipedia":"fr:Avenue des Pins","wikipedia_en":"Pine Avenue","Shape_Length":0.00024263810500973562}},{"type":"Feature","id":455,"geometry":{"type":"LineString","coordinates":[[-73.578175099999953,45.506222900000068],[-73.578259799999955,45.50626230000006],[-73.578239699999983,45.506320000000073]]},"properties":{"OBJECTID":455,"F_id":"way/1218387369","cycleway_both":"no","highway":"footway","lanes":"2","name":"Rue University","name_en":"Pine Avenue West","name_fr":"Avenue des Pins Ouest","surface":"paving_stones","wikidata":"Q2874119","wikipedia":"fr:Avenue des Pins","wikipedia_en":"Pine Avenue","Shape_Length":0.0001545162063059324}},{"type":"Feature","id":456,"geometry":{"type":"LineString","coordinates":[[-73.577843399999949,45.506455200000062],[-73.577771999999982,45.506477200000063]]},"properties":{"OBJECTID":456,"F_id":"way/1218387370","cycleway_both":"no","highway":"footway","lanes":"2","name":"Rue University","name_en":"Pine Avenue West","name_fr":"Avenue des Pins Ouest","surface":"paving_stones","wikidata":"Q2874119","wikipedia":"fr:Avenue des Pins","wikipedia_en":"Pine Avenue","Shape_Length":7.4712515654472151e-05}},{"type":"Feature","id":457,"geometry":{"type":"LineString","coordinates":[[-73.579057999999975,45.507013800000038],[-73.579076199999975,45.507029900000077]]},"properties":{"OBJECTID":457,"F_id":"way/1218387372","cycleway_both":"no","highway":"footway","lanes":"2","name":"Rue University","name_en":"Pine Avenue West","name_fr":"Avenue des Pins Ouest","surface":"paving_stones","wikidata":"Q2874119","wikipedia":"fr:Avenue des Pins","wikipedia_en":"Pine Avenue","Shape_Length":2.4299176966232743e-05}},{"type":"Feature","id":458,"geometry":{"type":"LineString","coordinates":[[-73.579870599999936,45.507003700000041],[-73.579792899999973,45.50708510000004]]},"properties":{"OBJECTID":458,"F_id":"way/1218387373","cycleway_both":"no","highway":"footway","lanes":"2","name":"Rue University","name_en":"Pine Avenue West","name_fr":"Avenue des Pins Ouest","surface":"paving_stones","wikidata":"Q2874119","wikipedia":"fr:Avenue des Pins","wikipedia_en":"Pine Avenue","Shape_Length":0.00011253110678432534}},{"type":"Feature","id":459,"geometry":{"type":"LineString","coordinates":[[-73.579564999999945,45.50727020000005],[-73.579491299999972,45.507342100000074]]},"properties":{"OBJECTID":459,"F_id":"way/1218387376","cycleway_both":"no","highway":"steps","lanes":"2","name":"Rue University","name_en":"Pine Avenue West","name_fr":"Avenue des Pins Ouest","surface":"paving_stones","wikidata":"Q2874119","wikipedia":"fr:Avenue des Pins","wikipedia_en":"Pine Avenue","Shape_Length":0.00010296261457128844}},{"type":"Feature","id":460,"geometry":{"type":"LineString","coordinates":[[-73.579925499999945,45.506946300000038],[-73.579870599999936,45.507003700000041]]},"properties":{"OBJECTID":460,"F_id":"way/1218387377","cycleway_both":"no","highway":"steps","lanes":"2","name":"Rue University","name_en":"Pine Avenue West","name_fr":"Avenue des Pins Ouest","surface":"paving_stones","wikidata":"Q2874119","wikipedia":"fr:Avenue des Pins","wikipedia_en":"Pine Avenue","Shape_Length":7.9427765934451765e-05}},{"type":"Feature","id":461,"geometry":{"type":"LineString","coordinates":[[-73.579792899999973,45.50708510000004],[-73.579736099999934,45.507144500000038]]},"properties":{"OBJECTID":461,"F_id":"way/1218387378","cycleway_both":"no","highway":"steps","lanes":"2","name":"Rue University","name_en":"Pine Avenue West","name_fr":"Avenue des Pins Ouest","surface":"paving_stones","wikidata":"Q2874119","wikipedia":"fr:Avenue des Pins","wikipedia_en":"Pine Avenue","Shape_Length":8.2186373591454094e-05}},{"type":"Feature","id":467,"geometry":{"type":"LineString","coordinates":[[-73.578894199999979,45.507016800000031],[-73.578928699999949,45.507034300000043]]},"properties":{"OBJECTID":467,"F_id":"way/1218387384","cycleway_both":"no","highway":"steps","lanes":"2","name":"Rue University","name_en":"Pine Avenue West","name_fr":"Avenue des Pins Ouest","surface":"paving_stones","wikidata":"Q2874119","wikipedia":"fr:Avenue des Pins","wikipedia_en":"Pine Avenue","Shape_Length":3.8684622246509233e-05}},{"type":"Feature","id":468,"geometry":{"type":"LineString","coordinates":[[-73.578928699999949,45.507034300000043],[-73.578943899999956,45.507072600000072]]},"properties":{"OBJECTID":468,"F_id":"way/1218387385","cycleway_both":"no","highway":"footway","lanes":"2","name":"Rue University","name_en":"Pine Avenue West","name_fr":"Avenue des Pins Ouest","surface":"paving_stones","wikidata":"Q2874119","wikipedia":"fr:Avenue des Pins","wikipedia_en":"Pine Avenue","Shape_Length":4.1205946201828236e-05}},{"type":"Feature","id":469,"geometry":{"type":"LineString","coordinates":[[-73.578741399999956,45.506977000000063],[-73.578894199999979,45.507016800000031]]},"properties":{"OBJECTID":469,"F_id":"way/1218387386","cycleway_both":"no","highway":"footway","lanes":"2","name":"Rue University","name_en":"Pine Avenue West","name_fr":"Avenue des Pins Ouest","surface":"paving_stones","wikidata":"Q2874119","wikipedia":"fr:Avenue des Pins","wikipedia_en":"Pine Avenue","Shape_Length":0.0001578983217282866}},{"type":"Feature","id":470,"geometry":{"type":"LineString","coordinates":[[-73.578994999999964,45.507139000000052],[-73.579022699999939,45.507155400000045],[-73.579142199999978,45.507186600000068]]},"properties":{"OBJECTID":470,"F_id":"way/1218387387","cycleway_both":"no","highway":"footway","lanes":"2","name":"Rue University","name_en":"Pine Avenue West","name_fr":"Avenue des Pins Ouest","surface":"paving_stones","wikidata":"Q2874119","wikipedia":"fr:Avenue des Pins","wikipedia_en":"Pine Avenue","Shape_Length":0.00015569666704681159}},{"type":"Feature","id":471,"geometry":{"type":"LineString","coordinates":[[-73.578930399999933,45.507111400000042],[-73.578994999999964,45.507139000000052]]},"properties":{"OBJECTID":471,"F_id":"way/1218387388","cycleway_both":"no","highway":"steps","lanes":"2","name":"Rue University","name_en":"Pine Avenue West","name_fr":"Avenue des Pins Ouest","surface":"paving_stones","wikidata":"Q2874119","wikipedia":"fr:Avenue des Pins","wikipedia_en":"Pine Avenue","Shape_Length":7.0248985789433897e-05}},{"type":"Feature","id":472,"geometry":{"type":"LineString","coordinates":[[-73.578912699999989,45.507102800000041],[-73.578930399999933,45.507111400000042]]},"properties":{"OBJECTID":472,"F_id":"way/1218387389","cycleway_both":"no","highway":"footway","lanes":"2","name":"Rue University","name_en":"Pine Avenue West","name_fr":"Avenue des Pins Ouest","surface":"paving_stones","wikidata":"Q2874119","wikipedia":"fr:Avenue des Pins","wikipedia_en":"Pine Avenue","Shape_Length":1.9678668604181707e-05}},{"type":"Feature","id":473,"geometry":{"type":"LineString","coordinates":[[-73.578882799999974,45.507155600000033],[-73.578806499999985,45.507229400000028]]},"properties":{"OBJECTID":473,"F_id":"way/1218387391","cycleway_both":"no","highway":"footway","lanes":"2","name":"Rue University","name_en":"Pine Avenue West","name_fr":"Avenue des Pins Ouest","surface":"paving_stones","wikidata":"Q2874119","wikipedia":"fr:Avenue des Pins","wikipedia_en":"Pine Avenue","Shape_Length":0.00010615144840136416}},{"type":"Feature","id":474,"geometry":{"type":"LineString","coordinates":[[-73.578912699999989,45.507102800000041],[-73.578884599999981,45.507138900000029],[-73.57886469999994,45.507146600000056]]},"properties":{"OBJECTID":474,"F_id":"way/1218387392","cycleway_both":"no","highway":"footway","lanes":"2","name":"Rue University","name_en":"Pine Avenue West","name_fr":"Avenue des Pins Ouest","surface":"paving_stones","wikidata":"Q2874119","wikipedia":"fr:Avenue des Pins","wikipedia_en":"Pine Avenue","Shape_Length":6.7085109650954087e-05}},{"type":"Feature","id":475,"geometry":{"type":"LineString","coordinates":[[-73.57886469999994,45.507146600000056],[-73.578843999999947,45.507166600000062]]},"properties":{"OBJECTID":475,"F_id":"way/1218387393","cycleway_both":"no","highway":"steps","lanes":"2","name":"Rue University","name_en":"Pine Avenue West","name_fr":"Avenue des Pins Ouest","surface":"paving_stones","wikidata":"Q2874119","wikipedia":"fr:Avenue des Pins","wikipedia_en":"Pine Avenue","Shape_Length":2.8783502218682814e-05}},{"type":"Feature","id":476,"geometry":{"type":"LineString","coordinates":[[-73.578882799999974,45.507155600000033],[-73.578884599999981,45.507138900000029]]},"properties":{"OBJECTID":476,"F_id":"way/1218387394","cycleway_both":"no","highway":"footway","lanes":"2","name":"Rue University","name_en":"Pine Avenue West","name_fr":"Avenue des Pins Ouest","surface":"paving_stones","wikidata":"Q2874119","wikipedia":"fr:Avenue des Pins","wikipedia_en":"Pine Avenue","Shape_Length":1.6796725875454534e-05}},{"type":"Feature","id":477,"geometry":{"type":"LineString","coordinates":[[-73.579022699999939,45.507155400000045],[-73.578990399999952,45.50718640000008]]},"properties":{"OBJECTID":477,"F_id":"way/1218387395","cycleway_both":"no","highway":"footway","lanes":"2","name":"Rue University","name_en":"Pine Avenue West","name_fr":"Avenue des Pins Ouest","surface":"paving_stones","wikidata":"Q2874119","wikipedia":"fr:Avenue des Pins","wikipedia_en":"Pine Avenue","Shape_Length":4.4769297530052832e-05}},{"type":"Feature","id":478,"geometry":{"type":"LineString","coordinates":[[-73.578843999999947,45.507166600000062],[-73.578788299999985,45.507220500000074],[-73.578773599999977,45.507234800000049]]},"properties":{"OBJECTID":478,"F_id":"way/1218387396","cycleway_both":"no","highway":"footway","lanes":"2","name":"Rue University","name_en":"Pine Avenue West","name_fr":"Avenue des Pins Ouest","surface":"paving_stones","wikidata":"Q2874119","wikipedia":"fr:Avenue des Pins","wikipedia_en":"Pine Avenue","Shape_Length":9.801740144457205e-05}},{"type":"Feature","id":479,"geometry":{"type":"LineString","coordinates":[[-73.578773599999977,45.507234800000049],[-73.578742399999953,45.507265000000075]]},"properties":{"OBJECTID":479,"F_id":"way/1218387397","cycleway_both":"no","highway":"steps","lanes":"2","name":"Rue University","name_en":"Pine Avenue West","name_fr":"Avenue des Pins Ouest","surface":"paving_stones","wikidata":"Q2874119","wikipedia":"fr:Avenue des Pins","wikipedia_en":"Pine Avenue","Shape_Length":4.3422114216651293e-05}},{"type":"Feature","id":480,"geometry":{"type":"LineString","coordinates":[[-73.578742399999953,45.507265000000075],[-73.578728599999977,45.507278400000075]]},"properties":{"OBJECTID":480,"F_id":"way/1218387398","cycleway_both":"no","highway":"footway","lanes":"2","name":"Rue University","name_en":"Pine Avenue West","name_fr":"Avenue des Pins Ouest","surface":"paving_stones","wikidata":"Q2874119","wikipedia":"fr:Avenue des Pins","wikipedia_en":"Pine Avenue","Shape_Length":1.9235384045022273e-05}},{"type":"Feature","id":481,"geometry":{"type":"LineString","coordinates":[[-73.578668799999946,45.507336200000054],[-73.578647099999955,45.507357200000058],[-73.578639399999986,45.507364700000039],[-73.578618499999948,45.507384500000057]]},"properties":{"OBJECTID":481,"F_id":"way/1218387399","cycleway_both":"no","highway":"footway","lanes":"2","name":"Rue University","name_en":"Pine Avenue West","name_fr":"Avenue des Pins Ouest","surface":"paving_stones","wikidata":"Q2874119","wikipedia":"fr:Avenue des Pins","wikipedia_en":"Pine Avenue","Shape_Length":6.97362250148006e-05}},{"type":"Feature","id":482,"geometry":{"type":"LineString","coordinates":[[-73.57868979999995,45.507315900000037],[-73.578668799999946,45.507336200000054]]},"properties":{"OBJECTID":482,"F_id":"way/1218387400","cycleway_both":"no","highway":"steps","lanes":"2","name":"Rue University","name_en":"Pine Avenue West","name_fr":"Avenue des Pins Ouest","surface":"paving_stones","wikidata":"Q2874119","wikipedia":"fr:Avenue des Pins","wikipedia_en":"Pine Avenue","Shape_Length":2.9207704477571402e-05}},{"type":"Feature","id":483,"geometry":{"type":"LineString","coordinates":[[-73.578702699999951,45.507303400000069],[-73.57868979999995,45.507315900000037]]},"properties":{"OBJECTID":483,"F_id":"way/1218387401","cycleway_both":"no","highway":"footway","lanes":"2","name":"Rue University","name_en":"Pine Avenue West","name_fr":"Avenue des Pins Ouest","surface":"paving_stones","wikidata":"Q2874119","wikipedia":"fr:Avenue des Pins","wikipedia_en":"Pine Avenue","Shape_Length":1.7962739191188513e-05}},{"type":"Feature","id":484,"geometry":{"type":"LineString","coordinates":[[-73.578815199999951,45.507233600000063],[-73.578806499999985,45.507229400000028],[-73.578788299999985,45.507220500000074]]},"properties":{"OBJECTID":484,"F_id":"way/1218387402","cycleway_both":"no","highway":"footway","lanes":"2","name":"Rue University","name_en":"Pine Avenue West","name_fr":"Avenue des Pins Ouest","surface":"paving_stones","wikidata":"Q2874119","wikipedia":"fr:Avenue des Pins","wikipedia_en":"Pine Avenue","Shape_Length":2.9920310919654716e-05}},{"type":"Feature","id":486,"geometry":{"type":"LineString","coordinates":[[-73.577088099999969,45.504466600000057],[-73.577145999999971,45.504495900000052]]},"properties":{"OBJECTID":486,"F_id":"way/1218391703","cycleway_both":"no","highway":"footway","lanes":"2","name":"Rue University","name_en":"Pine Avenue West","name_fr":"Avenue des Pins Ouest","surface":"paving_stones","wikidata":"Q2874119","wikipedia":"fr:Avenue des Pins","wikipedia_en":"Pine Avenue","Shape_Length":6.4891447817479346e-05}},{"type":"Feature","id":487,"geometry":{"type":"LineString","coordinates":[[-73.579394799999989,45.50747860000007],[-73.579331999999965,45.507438100000059]]},"properties":{"OBJECTID":487,"F_id":"way/1218391715","cycleway_both":"no","highway":"footway","lanes":"2","name":"Rue University","name_en":"Pine Avenue West","name_fr":"Avenue des Pins Ouest","surface":"paving_stones","wikidata":"Q2874119","wikipedia":"fr:Avenue des Pins","wikipedia_en":"Pine Avenue","Shape_Length":7.4726768991160031e-05}},{"type":"Feature","id":488,"geometry":{"type":"LineString","coordinates":[[-73.579404899999986,45.507765200000051],[-73.57946469999996,45.507714900000053]]},"properties":{"OBJECTID":488,"F_id":"way/1218391721","cycleway_both":"no","highway":"steps","lanes":"2","name":"Rue University","name_en":"Pine Avenue West","name_fr":"Avenue des Pins Ouest","surface":"paving_stones","wikidata":"Q2874119","wikipedia":"fr:Avenue des Pins","wikipedia_en":"Pine Avenue","Shape_Length":7.8141730187552373e-05}},{"type":"Feature","id":489,"geometry":{"type":"LineString","coordinates":[[-73.577743199999986,45.503845600000034],[-73.577576299999976,45.50376870000008]]},"properties":{"OBJECTID":489,"F_id":"way/1218391727","cycleway_both":"no","highway":"footway","lanes":"2","name":"Rue University","name_en":"Pine Avenue West","name_fr":"Avenue des Pins Ouest","surface":"paving_stones","wikidata":"Q2874119","wikipedia":"fr:Avenue des Pins","wikipedia_en":"Pine Avenue","Shape_Length":0.00018376403346797031}},{"type":"Feature","id":491,"geometry":{"type":"LineString","coordinates":[[-73.577541699999983,45.505214800000033],[-73.577485299999978,45.505186900000069]]},"properties":{"OBJECTID":491,"F_id":"way/1218391733","cycleway_both":"no","highway":"steps","lanes":"2","name":"Rue University","name_en":"Pine Avenue West","name_fr":"Avenue des Pins Ouest","surface":"paving_stones","wikidata":"Q2874119","wikipedia":"fr:Avenue des Pins","wikipedia_en":"Pine Avenue","Shape_Length":6.2923525001236692e-05}},{"type":"Feature","id":492,"geometry":{"type":"LineString","coordinates":[[-73.577485299999978,45.505186900000069],[-73.577452799999946,45.505175500000064]]},"properties":{"OBJECTID":492,"F_id":"way/1218391734","cycleway_both":"no","highway":"footway","lanes":"2","name":"Rue University","name_en":"Pine Avenue West","name_fr":"Avenue des Pins Ouest","surface":"paving_stones","wikidata":"Q2874119","wikipedia":"fr:Avenue des Pins","wikipedia_en":"Pine Avenue","Shape_Length":3.4441399538600017e-05}},{"type":"Feature","id":493,"geometry":{"type":"LineString","coordinates":[[-73.575938299999962,45.505153200000052],[-73.575965999999937,45.505127100000038]]},"properties":{"OBJECTID":493,"F_id":"way/1218393585","cycleway_both":"no","highway":"steps","lanes":"2","name":"Rue University","name_en":"Pine Avenue West","name_fr":"Avenue des Pins Ouest","surface":"paving_stones","wikidata":"Q2874119","wikipedia":"fr:Avenue des Pins","wikipedia_en":"Pine Avenue","Shape_Length":3.8059164459551598e-05}},{"type":"Feature","id":494,"geometry":{"type":"LineString","coordinates":[[-73.575965999999937,45.505127100000038],[-73.575996299999986,45.505103700000063]]},"properties":{"OBJECTID":494,"F_id":"way/1218393586","cycleway_both":"no","highway":"footway","lanes":"2","name":"Rue University","name_en":"Pine Avenue West","name_fr":"Avenue des Pins Ouest","surface":"paving_stones","wikidata":"Q2874119","wikipedia":"fr:Avenue des Pins","wikipedia_en":"Pine Avenue","Shape_Length":3.8283808611130981e-05}},{"type":"Feature","id":496,"geometry":{"type":"LineString","coordinates":[[-73.580519399999957,45.502632500000061],[-73.580729399999939,45.50273320000008]]},"properties":{"OBJECTID":496,"F_id":"way/1218406651","cycleway_both":"no","highway":"footway","lanes":"2","name":"Rue University","name_en":"Pine Avenue West","name_fr":"Avenue des Pins Ouest","surface":"paving_stones","wikidata":"Q2874119","wikipedia":"fr:Avenue des Pins","wikipedia_en":"Pine Avenue","Shape_Length":0.00023289587801404225}},{"type":"Feature","id":497,"geometry":{"type":"LineString","coordinates":[[-73.581156699999951,45.502850700000067],[-73.581185799999957,45.502849400000059],[-73.581146899999965,45.502694600000041],[-73.58112269999998,45.502662200000032]]},"properties":{"OBJECTID":497,"F_id":"way/1218406652","cycleway_both":"no","highway":"footway","lanes":"2","name":"Rue University","name_en":"Pine Avenue West","name_fr":"Avenue des Pins Ouest","surface":"paving_stones","wikidata":"Q2874119","wikipedia":"fr:Avenue des Pins","wikipedia_en":"Pine Avenue","Shape_Length":0.00022918191524621439}},{"type":"Feature","id":498,"geometry":{"type":"LineString","coordinates":[[-73.581031099999961,45.502855700000055],[-73.581156699999951,45.502850700000067]]},"properties":{"OBJECTID":498,"F_id":"way/1218406653","cycleway_both":"no","highway":"steps","lanes":"2","name":"Rue University","name_en":"Pine Avenue West","name_fr":"Avenue des Pins Ouest","surface":"paving_stones","wikidata":"Q2874119","wikipedia":"fr:Avenue des Pins","wikipedia_en":"Pine Avenue","Shape_Length":0.00012569948288407081}},{"type":"Feature","id":499,"geometry":{"type":"LineString","coordinates":[[-73.580817899999943,45.502782400000058],[-73.580964999999935,45.502846300000044],[-73.581031099999961,45.502855700000055]]},"properties":{"OBJECTID":499,"F_id":"way/1218406654","cycleway_both":"no","highway":"footway","lanes":"2","name":"Rue University","name_en":"Pine Avenue West","name_fr":"Avenue des Pins Ouest","surface":"paving_stones","wikidata":"Q2874119","wikipedia":"fr:Avenue des Pins","wikipedia_en":"Pine Avenue","Shape_Length":0.0002271446479455889}},{"type":"Feature","id":500,"geometry":{"type":"LineString","coordinates":[[-73.580795999999964,45.502764500000069],[-73.580817899999943,45.502782400000058]]},"properties":{"OBJECTID":500,"F_id":"way/1218406655","cycleway_both":"no","highway":"steps","lanes":"2","name":"Rue University","name_en":"Pine Avenue West","name_fr":"Avenue des Pins Ouest","surface":"paving_stones","wikidata":"Q2874119","wikipedia":"fr:Avenue des Pins","wikipedia_en":"Pine Avenue","Shape_Length":2.8284624775222476e-05}},{"type":"Feature","id":501,"geometry":{"type":"LineString","coordinates":[[-73.580757499999947,45.502745400000038],[-73.580795999999964,45.502764500000069]]},"properties":{"OBJECTID":501,"F_id":"way/1218406656","cycleway_both":"no","highway":"footway","lanes":"2","name":"Rue University","name_en":"Pine Avenue West","name_fr":"Avenue des Pins Ouest","surface":"paving_stones","wikidata":"Q2874119","wikipedia":"fr:Avenue des Pins","wikipedia_en":"Pine Avenue","Shape_Length":4.2977435968972321e-05}},{"type":"Feature","id":502,"geometry":{"type":"LineString","coordinates":[[-73.580729399999939,45.50273320000008],[-73.580757499999947,45.502745400000038]]},"properties":{"OBJECTID":502,"F_id":"way/1218406657","cycleway_both":"no","highway":"steps","lanes":"2","name":"Rue University","name_en":"Pine Avenue West","name_fr":"Avenue des Pins Ouest","surface":"paving_stones","wikidata":"Q2874119","wikipedia":"fr:Avenue des Pins","wikipedia_en":"Pine Avenue","Shape_Length":3.0634131282873473e-05}},{"type":"Feature","id":505,"geometry":{"type":"LineString","coordinates":[[-73.580724799999984,45.502464900000064],[-73.58083449999998,45.502517000000068]]},"properties":{"OBJECTID":505,"F_id":"way/1218406660","cycleway_both":"no","highway":"footway","lanes":"2","name":"Rue University","name_en":"Pine Avenue West","name_fr":"Avenue des Pins Ouest","surface":"paving_stones","wikidata":"Q2874119","wikipedia":"fr:Avenue des Pins","wikipedia_en":"Pine Avenue","Shape_Length":0.00012144340245400562}},{"type":"Feature","id":510,"geometry":{"type":"LineString","coordinates":[[-73.578647099999955,45.507357200000058],[-73.578790199999958,45.507424900000046],[-73.578800299999955,45.507415000000037]]},"properties":{"OBJECTID":510,"F_id":"way/1218424083","cycleway_both":"no","highway":"footway","lanes":"2","name":"Rue University","name_en":"Pine Avenue West","name_fr":"Avenue des Pins Ouest","surface":"paving_stones","wikidata":"Q2874119","wikipedia":"fr:Avenue des Pins","wikipedia_en":"Pine Avenue","Shape_Length":0.00017244919129215998}},{"type":"Feature","id":511,"geometry":{"type":"LineString","coordinates":[[-73.576814299999967,45.50600890000004],[-73.576756599999953,45.506071700000064],[-73.576736099999948,45.506094100000041]]},"properties":{"OBJECTID":511,"F_id":"way/1218424084","cycleway_both":"no","highway":"service","lanes":"2","name":"Rue University","name_en":"Pine Avenue West","name_fr":"Avenue des Pins Ouest","surface":"paving_stones","wikidata":"Q2874119","wikipedia":"fr:Avenue des Pins","wikipedia_en":"Pine Avenue","Shape_Length":0.00011564726528783854}},{"type":"Feature","id":512,"geometry":{"type":"LineString","coordinates":[[-73.576814299999967,45.50600890000004],[-73.576870099999951,45.50602930000008],[-73.576924499999961,45.506053700000052]]},"properties":{"OBJECTID":512,"F_id":"way/1218424085","cycleway_both":"no","highway":"service","lanes":"2","name":"Rue University","name_en":"Pine Avenue West","name_fr":"Avenue des Pins Ouest","surface":"paving_stones","wikidata":"Q2874119","wikipedia":"fr:Avenue des Pins","wikipedia_en":"Pine Avenue","Shape_Length":0.00011903359261459278}},{"type":"Feature","id":513,"geometry":{"type":"LineString","coordinates":[[-73.577103399999942,45.505537700000048],[-73.577108099999975,45.50553130000003],[-73.577143499999977,45.50548370000007],[-73.577342199999975,45.505283700000064]]},"properties":{"OBJECTID":513,"F_id":"way/1218424086","cycleway_both":"no","highway":"service","lanes":"2","name":"Rue University","name_en":"Pine Avenue West","name_fr":"Avenue des Pins Ouest","surface":"paving_stones","wikidata":"Q2874119","wikipedia":"fr:Avenue des Pins","wikipedia_en":"Pine Avenue","Shape_Length":0.00034918586080795466}},{"type":"Feature","id":514,"geometry":{"type":"LineString","coordinates":[[-73.577459199999964,45.505824500000074],[-73.577433499999984,45.50584850000007]]},"properties":{"OBJECTID":514,"F_id":"way/1218424087","cycleway_both":"no","highway":"service","lanes":"2","name":"Rue University","name_en":"Pine Avenue West","name_fr":"Avenue des Pins Ouest","surface":"paving_stones","wikidata":"Q2874119","wikipedia":"fr:Avenue des Pins","wikipedia_en":"Pine Avenue","Shape_Length":3.5163759736726264e-05}},{"type":"Feature","id":515,"geometry":{"type":"LineString","coordinates":[[-73.577152799999965,45.506120500000065],[-73.577128199999947,45.50614500000006]]},"properties":{"OBJECTID":515,"F_id":"way/1218424088","cycleway_both":"no","highway":"service","lanes":"2","name":"Rue University","name_en":"Pine Avenue West","name_fr":"Avenue des Pins Ouest","surface":"paving_stones","wikidata":"Q2874119","wikipedia":"fr:Avenue des Pins","wikipedia_en":"Pine Avenue","Shape_Length":3.4719014971827283e-05}},{"type":"Feature","id":516,"geometry":{"type":"LineString","coordinates":[[-73.577459199999964,45.505824500000074],[-73.577368399999955,45.505770600000062],[-73.577350699999954,45.505761600000028]]},"properties":{"OBJECTID":516,"F_id":"way/1218424089","cycleway_both":"no","highway":"service","lanes":"2","name":"Rue University","name_en":"Pine Avenue West","name_fr":"Avenue des Pins Ouest","surface":"asphalt","wikidata":"Q2874119","wikipedia":"fr:Avenue des Pins","wikipedia_en":"Pine Avenue","Shape_Length":0.0001254495870590944}},{"type":"Feature","id":519,"geometry":{"type":"LineString","coordinates":[[-73.577639199999965,45.503702600000054],[-73.577711399999941,45.503624700000046]]},"properties":{"OBJECTID":519,"F_id":"way/1218424092","cycleway_both":"no","highway":"service","lanes":"2","name":"Rue University","name_en":"Pine Avenue West","name_fr":"Avenue des Pins Ouest","surface":"paving_stones","wikidata":"Q2874119","wikipedia":"fr:Avenue des Pins","wikipedia_en":"Pine Avenue","Shape_Length":0.00010621322892135626}},{"type":"Feature","id":521,"geometry":{"type":"LineString","coordinates":[[-73.574467299999981,45.505234500000029],[-73.574489699999958,45.505207100000064]]},"properties":{"OBJECTID":521,"F_id":"way/1218569888","cycleway_both":"no","highway":"steps","lanes":"2","name":"Rue University","name_en":"Pine Avenue West","name_fr":"Avenue des Pins Ouest","surface":"paving_stones","wikidata":"Q2874119","wikipedia":"fr:Avenue des Pins","wikipedia_en":"Pine Avenue","Shape_Length":3.5390959256176497e-05}},{"type":"Feature","id":522,"geometry":{"type":"LineString","coordinates":[[-73.574436499999933,45.505259900000055],[-73.574386599999968,45.505272400000081]]},"properties":{"OBJECTID":522,"F_id":"way/1218569889","cycleway_both":"no","highway":"footway","lanes":"2","name":"Rue University","name_en":"Pine Avenue West","name_fr":"Avenue des Pins Ouest","surface":"paving_stones","wikidata":"Q2874119","wikipedia":"fr:Avenue des Pins","wikipedia_en":"Pine Avenue","Shape_Length":5.1441811759846819e-05}},{"type":"Feature","id":523,"geometry":{"type":"LineString","coordinates":[[-73.574467299999981,45.505234500000029],[-73.574436499999933,45.505259900000055]]},"properties":{"OBJECTID":523,"F_id":"way/1218569890","cycleway_both":"no","highway":"steps","lanes":"2","name":"Rue University","name_en":"Pine Avenue West","name_fr":"Avenue des Pins Ouest","surface":"paving_stones","wikidata":"Q2874119","wikipedia":"fr:Avenue des Pins","wikipedia_en":"Pine Avenue","Shape_Length":3.9922424829608444e-05}},{"type":"Feature","id":524,"geometry":{"type":"LineString","coordinates":[[-73.574489699999958,45.505207100000064],[-73.574473799999964,45.505176100000028]]},"properties":{"OBJECTID":524,"F_id":"way/1218569891","cycleway_both":"no","highway":"footway","lanes":"2","name":"Rue University","name_en":"Pine Avenue West","name_fr":"Avenue des Pins Ouest","surface":"paving_stones","wikidata":"Q2874119","wikipedia":"fr:Avenue des Pins","wikipedia_en":"Pine Avenue","Shape_Length":3.4839776147443959e-05}},{"type":"Feature","id":525,"geometry":{"type":"LineString","coordinates":[[-73.574478299999953,45.50523910000004],[-73.574467299999981,45.505234500000029]]},"properties":{"OBJECTID":525,"F_id":"way/1218569892","cycleway_both":"no","highway":"footway","lanes":"2","name":"Rue University","name_en":"Pine Avenue West","name_fr":"Avenue des Pins Ouest","surface":"paving_stones","wikidata":"Q2874119","wikipedia":"fr:Avenue des Pins","wikipedia_en":"Pine Avenue","Shape_Length":1.192308682730042e-05}},{"type":"Feature","id":526,"geometry":{"type":"LineString","coordinates":[[-73.578830099999948,45.507218400000056],[-73.578760099999954,45.507187900000076]]},"properties":{"OBJECTID":526,"F_id":"way/1218569896","cycleway_both":"no","highway":"footway","lanes":"2","name":"Rue University","name_en":"Pine Avenue West","name_fr":"Avenue des Pins Ouest","surface":"paving_stones","wikidata":"Q2874119","wikipedia":"fr:Avenue des Pins","wikipedia_en":"Pine Avenue","Shape_Length":7.6356073745981407e-05}},{"type":"Feature","id":527,"geometry":{"type":"LineString","coordinates":[[-73.577379299999961,45.506045800000038],[-73.577272499999935,45.50600090000006]]},"properties":{"OBJECTID":527,"F_id":"way/1218569898","cycleway_both":"no","highway":"footway","lanes":"2","name":"Rue University","name_en":"Pine Avenue West","name_fr":"Avenue des Pins Ouest","surface":"paving_stones","wikidata":"Q2874119","wikipedia":"fr:Avenue des Pins","wikipedia_en":"Pine Avenue","Shape_Length":0.00011585443454408009}},{"type":"Feature","id":529,"geometry":{"type":"LineString","coordinates":[[-73.578760099999954,45.507187900000076],[-73.578723899999943,45.507170100000053]]},"properties":{"OBJECTID":529,"F_id":"way/1218569906","cycleway_both":"no","highway":"corridor","lanes":"2","name":"Rue University","name_en":"Pine Avenue West","name_fr":"Avenue des Pins Ouest","surface":"paving_stones","wikidata":"Q2874119","wikipedia":"fr:Avenue des Pins","wikipedia_en":"Pine Avenue","Shape_Length":4.0339558768276225e-05}},{"type":"Feature","id":530,"geometry":{"type":"LineString","coordinates":[[-73.577774199999965,45.504320600000028],[-73.577757899999938,45.504312300000038],[-73.577653699999985,45.504259200000035]]},"properties":{"OBJECTID":530,"F_id":"way/1218670629","cycleway_both":"no","highway":"footway","lanes":"2","name":"Rue University","name_en":"Pine Avenue West","name_fr":"Avenue des Pins Ouest","surface":"paving_stones","wikidata":"Q2874119","wikipedia":"fr:Avenue des Pins","wikipedia_en":"Pine Avenue","Shape_Length":0.00013524130361740889}},{"type":"Feature","id":531,"geometry":{"type":"LineString","coordinates":[[-73.577629599999966,45.50428450000004],[-73.577595299999984,45.504320600000028]]},"properties":{"OBJECTID":531,"F_id":"way/1218670630","cycleway_both":"no","highway":"footway","lanes":"2","name":"Rue University","name_en":"Pine Avenue West","name_fr":"Avenue des Pins Ouest","surface":"paving_stones","wikidata":"Q2874119","wikipedia":"fr:Avenue des Pins","wikipedia_en":"Pine Avenue","Shape_Length":4.9796586207327528e-05}},{"type":"Feature","id":532,"geometry":{"type":"LineString","coordinates":[[-73.577653699999985,45.504259200000035],[-73.577629599999966,45.50428450000004]]},"properties":{"OBJECTID":532,"F_id":"way/1218670631","cycleway_both":"no","highway":"steps","lanes":"2","name":"Rue University","name_en":"Pine Avenue West","name_fr":"Avenue des Pins Ouest","surface":"paving_stones","wikidata":"Q2874119","wikipedia":"fr:Avenue des Pins","wikipedia_en":"Pine Avenue","Shape_Length":3.4941379496556429e-05}},{"type":"Feature","id":533,"geometry":{"type":"LineString","coordinates":[[-73.577653699999985,45.504259200000035],[-73.577674499999944,45.504237200000034]]},"properties":{"OBJECTID":533,"F_id":"way/1218670632","cycleway_both":"no","highway":"footway","lanes":"2","name":"Rue University","name_en":"Pine Avenue West","name_fr":"Avenue des Pins Ouest","surface":"paving_stones","wikidata":"Q2874119","wikipedia":"fr:Avenue des Pins","wikipedia_en":"Pine Avenue","Shape_Length":3.02760631249418e-05}},{"type":"Feature","id":534,"geometry":{"type":"LineString","coordinates":[[-73.57773519999995,45.504335200000071],[-73.577629599999966,45.50428450000004]]},"properties":{"OBJECTID":534,"F_id":"way/1218670633","cycleway_both":"no","highway":"footway","lanes":"2","name":"Rue University","name_en":"Pine Avenue West","name_fr":"Avenue des Pins Ouest","surface":"paving_stones","wikidata":"Q2874119","wikipedia":"fr:Avenue des Pins","wikipedia_en":"Pine Avenue","Shape_Length":0.00011714030049335606}},{"type":"Feature","id":535,"geometry":{"type":"LineString","coordinates":[[-73.577757899999938,45.504312300000038],[-73.57773519999995,45.504335200000071]]},"properties":{"OBJECTID":535,"F_id":"way/1218670634","cycleway_both":"no","highway":"footway","lanes":"2","name":"Rue University","name_en":"Pine Avenue West","name_fr":"Avenue des Pins Ouest","surface":"paving_stones","wikidata":"Q2874119","wikipedia":"fr:Avenue des Pins","wikipedia_en":"Pine Avenue","Shape_Length":3.2244379370365598e-05}},{"type":"Feature","id":536,"geometry":{"type":"LineString","coordinates":[[-73.577752699999962,45.504158200000063],[-73.577791799999943,45.504177200000072]]},"properties":{"OBJECTID":536,"F_id":"way/1218670637","cycleway_both":"no","highway":"steps","lanes":"2","name":"Rue University","name_en":"Pine Avenue West","name_fr":"Avenue des Pins Ouest","surface":"paving_stones","wikidata":"Q2874119","wikipedia":"fr:Avenue des Pins","wikipedia_en":"Pine Avenue","Shape_Length":4.3471944962707209e-05}},{"type":"Feature","id":537,"geometry":{"type":"LineString","coordinates":[[-73.577904599999954,45.503995300000042],[-73.577946599999962,45.503989200000035]]},"properties":{"OBJECTID":537,"F_id":"way/1218670641","cycleway_both":"no","highway":"footway","lanes":"2","name":"Rue University","name_en":"Pine Avenue West","name_fr":"Avenue des Pins Ouest","surface":"paving_stones","wikidata":"Q2874119","wikipedia":"fr:Avenue des Pins","wikipedia_en":"Pine Avenue","Shape_Length":4.2440664470904013e-05}},{"type":"Feature","id":538,"geometry":{"type":"LineString","coordinates":[[-73.578011699999934,45.503981000000067],[-73.578314499999976,45.503942700000039]]},"properties":{"OBJECTID":538,"F_id":"way/1218670642","cycleway_both":"no","highway":"footway","lanes":"2","name":"Rue University","name_en":"Pine Avenue West","name_fr":"Avenue des Pins Ouest","surface":"paving_stones","wikidata":"Q2874119","wikipedia":"fr:Avenue des Pins","wikipedia_en":"Pine Avenue","Shape_Length":0.00030521259808208968}},{"type":"Feature","id":539,"geometry":{"type":"LineString","coordinates":[[-73.577989299999956,45.503983900000037],[-73.578011699999934,45.503981000000067]]},"properties":{"OBJECTID":539,"F_id":"way/1218670643","cycleway_both":"no","highway":"steps","lanes":"2","name":"Rue University","name_en":"Pine Avenue West","name_fr":"Avenue des Pins Ouest","surface":"paving_stones","wikidata":"Q2874119","wikipedia":"fr:Avenue des Pins","wikipedia_en":"Pine Avenue","Shape_Length":2.2586943104810878e-05}},{"type":"Feature","id":540,"geometry":{"type":"LineString","coordinates":[[-73.577974799999936,45.503985700000044],[-73.577989299999956,45.503983900000037]]},"properties":{"OBJECTID":540,"F_id":"way/1218670644","cycleway_both":"no","highway":"footway","lanes":"2","name":"Rue University","name_en":"Pine Avenue West","name_fr":"Avenue des Pins Ouest","surface":"paving_stones","wikidata":"Q2874119","wikipedia":"fr:Avenue des Pins","wikipedia_en":"Pine Avenue","Shape_Length":1.4611297020160994e-05}},{"type":"Feature","id":541,"geometry":{"type":"LineString","coordinates":[[-73.577946599999962,45.503989200000035],[-73.577974799999936,45.503985700000044]]},"properties":{"OBJECTID":541,"F_id":"way/1218670645","cycleway_both":"no","highway":"steps","lanes":"2","name":"Rue University","name_en":"Pine Avenue West","name_fr":"Avenue des Pins Ouest","surface":"paving_stones","wikidata":"Q2874119","wikipedia":"fr:Avenue des Pins","wikipedia_en":"Pine Avenue","Shape_Length":2.841636849576917e-05}},{"type":"Feature","id":542,"geometry":{"type":"LineString","coordinates":[[-73.57809919999994,45.504238000000043],[-73.578109799999936,45.504252800000074],[-73.578350299999954,45.504351800000052]]},"properties":{"OBJECTID":542,"F_id":"way/1218670647","cycleway_both":"no","highway":"footway","lanes":"2","name":"Rue University","name_en":"Pine Avenue West","name_fr":"Avenue des Pins Ouest","surface":"paving_stones","wikidata":"Q2874119","wikipedia":"fr:Avenue des Pins","wikipedia_en":"Pine Avenue","Shape_Length":0.00027828370992987486}},{"type":"Feature","id":543,"geometry":{"type":"LineString","coordinates":[[-73.577791799999943,45.504177200000072],[-73.577944899999977,45.504162500000064]]},"properties":{"OBJECTID":543,"F_id":"way/1218670648","cycleway_both":"no","highway":"footway","lanes":"2","name":"Rue University","name_en":"Pine Avenue West","name_fr":"Avenue des Pins Ouest","surface":"paving_stones","wikidata":"Q2874119","wikipedia":"fr:Avenue des Pins","wikipedia_en":"Pine Avenue","Shape_Length":0.00015380409620906565}},{"type":"Feature","id":544,"geometry":{"type":"LineString","coordinates":[[-73.577944899999977,45.504162500000064],[-73.577918799999964,45.504138800000078],[-73.577887199999964,45.504013600000064]]},"properties":{"OBJECTID":544,"F_id":"way/1218670676","cycleway_both":"no","highway":"footway","lanes":"2","name":"Rue University","name_en":"Pine Avenue West","name_fr":"Avenue des Pins Ouest","surface":"paving_stones","wikidata":"Q2874119","wikipedia":"fr:Avenue des Pins","wikipedia_en":"Pine Avenue","Shape_Length":0.00016438108168863585}},{"type":"Feature","id":545,"geometry":{"type":"LineString","coordinates":[[-73.577955599999939,45.503941700000041],[-73.57790099999994,45.503916900000036]]},"properties":{"OBJECTID":545,"F_id":"way/1218672465","cycleway_both":"no","highway":"footway","lanes":"2","name":"Rue University","name_en":"Pine Avenue West","name_fr":"Avenue des Pins Ouest","surface":"paving_stones","wikidata":"Q2874119","wikipedia":"fr:Avenue des Pins","wikipedia_en":"Pine Avenue","Shape_Length":5.9968324973453935e-05}},{"type":"Feature","id":546,"geometry":{"type":"LineString","coordinates":[[-73.577815399999963,45.504258500000049],[-73.577791799999943,45.504177200000072]]},"properties":{"OBJECTID":546,"F_id":"way/1218672466","cycleway_both":"no","highway":"footway","lanes":"2","name":"Rue University","name_en":"Pine Avenue West","name_fr":"Avenue des Pins Ouest","surface":"paving_stones","wikidata":"Q2874119","wikipedia":"fr:Avenue des Pins","wikipedia_en":"Pine Avenue","Shape_Length":8.4656068873677781e-05}},{"type":"Feature","id":547,"geometry":{"type":"LineString","coordinates":[[-73.574527399999965,45.505095700000027],[-73.574539613999946,45.505062071000054],[-73.574721478999948,45.504872676000048],[-73.575055374999977,45.505030163000072],[-73.575258134999956,45.504826046000062]]},"properties":{"OBJECTID":547,"F_id":null,"cycleway_both":null,"highway":null,"lanes":null,"name":null,"name_en":null,"name_fr":null,"surface":null,"wikidata":null,"wikipedia":null,"wikipedia_en":null,"Shape_Length":0.00095523289262221169}},{"type":"Feature","id":548,"geometry":{"type":"LineString","coordinates":[[-73.575258134999956,45.504826046000062],[-73.575306488999956,45.504778556000076],[-73.575412699999958,45.50483470000006]]},"properties":{"OBJECTID":548,"F_id":null,"cycleway_both":null,"highway":null,"lanes":null,"name":null,"name_en":null,"name_fr":null,"surface":null,"wikidata":null,"wikipedia":null,"wikipedia_en":null,"Shape_Length":0.00018791180621166242}},{"type":"Feature","id":549,"geometry":{"type":"LineString","coordinates":[[-73.575391470999989,45.504823478000048],[-73.575411867999946,45.504805906000058]]},"properties":{"OBJECTID":549,"F_id":null,"cycleway_both":null,"highway":null,"lanes":null,"name":null,"name_en":null,"name_fr":null,"surface":null,"wikidata":null,"wikipedia":null,"wikipedia_en":null,"Shape_Length":2.6922347425903141e-05}},{"type":"Feature","id":550,"geometry":{"type":"LineString","coordinates":[[-73.57533559999996,45.50465150000008],[-73.575303940999959,45.504684138000073],[-73.574847310999985,45.504452044000061],[-73.574911487999941,45.504383940000025],[-73.574871301999963,45.504326185000025],[-73.574835631999974,45.504366741000069]]},"properties":{"OBJECTID":550,"F_id":null,"cycleway_both":null,"highway":null,"lanes":null,"name":null,"name_en":null,"name_fr":null,"surface":null,"wikidata":null,"wikipedia":null,"wikipedia_en":null,"Shape_Length":0.00077564786159866239}},{"type":"Feature","id":551,"geometry":{"type":"LineString","coordinates":[[-73.574871301999963,45.504326185000025],[-73.574869877999959,45.504239636000079],[-73.574951478999935,45.503926496000076],[-73.576397399999962,45.504631500000073]]},"properties":{"OBJECTID":551,"F_id":null,"cycleway_both":null,"highway":null,"lanes":null,"name":null,"name_en":null,"name_fr":null,"surface":null,"wikidata":null,"wikipedia":null,"wikipedia_en":null,"Shape_Length":0.0020187968870278238}},{"type":"Feature","id":552,"geometry":{"type":"LineString","coordinates":[[-73.574951478999935,45.503926496000076],[-73.574801098999956,45.503852819000031],[-73.575901728999952,45.50273466200008]]},"properties":{"OBJECTID":552,"F_id":null,"cycleway_both":null,"highway":null,"lanes":null,"name":null,"name_en":null,"name_fr":null,"surface":null,"wikidata":null,"wikipedia":null,"wikipedia_en":null,"Shape_Length":0.0017364270682851384}},{"type":"Feature","id":553,"geometry":{"type":"LineString","coordinates":[[-73.576190999999938,45.503503100000046],[-73.576146470999959,45.503548709000029],[-73.577290113999936,45.504086681000047]]},"properties":{"OBJECTID":553,"F_id":null,"cycleway_both":null,"highway":null,"lanes":null,"name":null,"name_en":null,"name_fr":null,"surface":null,"wikidata":null,"wikipedia":null,"wikipedia_en":null,"Shape_Length":0.0013275982388317386}},{"type":"Feature","id":554,"geometry":{"type":"LineString","coordinates":[[-73.576146470999959,45.503548709000029],[-73.576079585999935,45.50351631500007]]},"properties":{"OBJECTID":554,"F_id":null,"cycleway_both":null,"highway":null,"lanes":null,"name":null,"name_en":null,"name_fr":null,"surface":null,"wikidata":null,"wikipedia":null,"wikipedia_en":null,"Shape_Length":7.4316717241317213e-05}},{"type":"Feature","id":555,"geometry":{"type":"LineString","coordinates":[[-73.57678204299998,45.503847687000075],[-73.576837929999954,45.503793976000054]]},"properties":{"OBJECTID":555,"F_id":null,"cycleway_both":null,"highway":null,"lanes":null,"name":null,"name_en":null,"name_fr":null,"surface":null,"wikidata":null,"wikipedia":null,"wikipedia_en":null,"Shape_Length":7.7512762105988261e-05}},{"type":"Feature","id":556,"geometry":{"type":"LineString","coordinates":[[-73.574847310999985,45.504452044000061],[-73.574543731999938,45.504785583000057],[-73.574721478999948,45.504872676000048]]},"properties":{"OBJECTID":556,"F_id":null,"cycleway_both":null,"highway":null,"lanes":null,"name":null,"name_en":null,"name_fr":null,"surface":null,"wikidata":null,"wikipedia":null,"wikipedia_en":null,"Shape_Length":0.00064894561585131716}},{"type":"Feature","id":557,"geometry":{"type":"LineString","coordinates":[[-73.574543731999938,45.504785583000057],[-73.574407881999946,45.504933731000051],[-73.574539613999946,45.505062071000054]]},"properties":{"OBJECTID":557,"F_id":null,"cycleway_both":null,"highway":null,"lanes":null,"name":null,"name_en":null,"name_fr":null,"surface":null,"wikidata":null,"wikipedia":null,"wikipedia_en":null,"Shape_Length":0.00038491942085095842}},{"type":"Feature","id":558,"geometry":{"type":"LineString","coordinates":[[-73.574407881999946,45.504933731000051],[-73.574276158999965,45.504866924000055]]},"properties":{"OBJECTID":558,"F_id":null,"cycleway_both":null,"highway":null,"lanes":null,"name":null,"name_en":null,"name_fr":null,"surface":null,"wikidata":null,"wikipedia":null,"wikipedia_en":null,"Shape_Length":0.00014769605266408677}},{"type":"Feature","id":559,"geometry":{"type":"LineString","coordinates":[[-73.574382637999975,45.504761669000061],[-73.574510269999962,45.50482207400006]]},"properties":{"OBJECTID":559,"F_id":null,"cycleway_both":null,"highway":null,"lanes":null,"name":null,"name_en":null,"name_fr":null,"surface":null,"wikidata":null,"wikipedia":null,"wikipedia_en":null,"Shape_Length":0.00014120443139542668}},{"type":"Feature","id":560,"geometry":{"type":"LineString","coordinates":[[-73.575303940999959,45.504684138000073],[-73.575306488999956,45.504778556000076]]},"properties":{"OBJECTID":560,"F_id":null,"cycleway_both":null,"highway":null,"lanes":null,"name":null,"name_en":null,"name_fr":null,"surface":null,"wikidata":null,"wikipedia":null,"wikipedia_en":null,"Shape_Length":9.4452374393734503e-05}},{"type":"Feature","id":561,"geometry":{"type":"LineString","coordinates":[[-73.575239715999942,45.504844588000026],[-73.574721575999945,45.504590188000066]]},"properties":{"OBJECTID":561,"F_id":null,"cycleway_both":null,"highway":null,"lanes":null,"name":null,"name_en":null,"name_fr":null,"surface":null,"wikidata":null,"wikipedia":null,"wikipedia_en":null,"Shape_Length":0.00057722475655207954}},{"type":"Feature","id":562,"geometry":{"type":"LineString","coordinates":[[-73.577282873999934,45.505343414000038],[-73.577411836999943,45.505412172000035]]},"properties":{"OBJECTID":562,"F_id":null,"cycleway_both":null,"highway":null,"lanes":null,"name":null,"name_en":null,"name_fr":null,"surface":null,"wikidata":null,"wikipedia":null,"wikipedia_en":null,"Shape_Length":0.00014614758956250218}},{"type":"Feature","id":563,"geometry":{"type":"LineString","coordinates":[[-73.577724299999943,45.503056800000081],[-73.578045499999973,45.502713500000027]]},"properties":{"OBJECTID":563,"F_id":null,"cycleway_both":null,"highway":null,"lanes":null,"name":null,"name_en":null,"name_fr":null,"surface":null,"wikidata":null,"wikipedia":null,"wikipedia_en":null,"Shape_Length":0.00047013224741198001}},{"type":"Feature","id":564,"geometry":{"type":"LineString","coordinates":[[-73.576472199999955,45.502904300000068],[-73.576391599999965,45.502983000000029]]},"properties":{"OBJECTID":564,"F_id":null,"cycleway_both":null,"highway":null,"lanes":null,"name":null,"name_en":null,"name_fr":null,"surface":null,"wikidata":null,"wikipedia":null,"wikipedia_en":null,"Shape_Length":0.00011265012202447089}},{"type":"Feature","id":565,"geometry":{"type":"LineString","coordinates":[[-73.576472199999955,45.502904300000068],[-73.576779599999952,45.502604500000075],[-73.577126999999962,45.502265700000066]]},"properties":{"OBJECTID":565,"F_id":null,"cycleway_both":null,"highway":null,"lanes":null,"name":null,"name_en":null,"name_fr":null,"surface":null,"wikidata":null,"wikipedia":null,"wikipedia_en":null,"Shape_Length":0.00091464364649121942}},{"type":"Feature","id":567,"geometry":{"type":"LineString","coordinates":[[-73.575901728999952,45.50273466200008],[-73.576254539999979,45.502367111000069],[-73.576615499999946,45.502013200000079]]},"properties":{"OBJECTID":567,"F_id":null,"cycleway_both":null,"highway":null,"lanes":null,"name":null,"name_en":null,"name_fr":null,"surface":null,"wikidata":null,"wikipedia":null,"wikipedia_en":null,"Shape_Length":0.0010149941843435328}},{"type":"Feature","id":568,"geometry":{"type":"LineString","coordinates":[[-73.578335899999956,45.503973700000074],[-73.578346499999952,45.504072700000052],[-73.578422499999988,45.504014700000027]]},"properties":{"OBJECTID":568,"F_id":null,"cycleway_both":null,"highway":null,"lanes":null,"name":null,"name_en":null,"name_fr":null,"surface":null,"wikidata":null,"wikipedia":null,"wikipedia_en":null,"Shape_Length":0.00019516920484358217}},{"type":"Feature","id":569,"geometry":{"type":"LineString","coordinates":[[-73.578350299999954,45.504351800000052],[-73.578313899999955,45.504462900000078]]},"properties":{"OBJECTID":569,"F_id":null,"cycleway_both":null,"highway":null,"lanes":null,"name":null,"name_en":null,"name_fr":null,"surface":null,"wikidata":null,"wikipedia":null,"wikipedia_en":null,"Shape_Length":0.00011691094904160507}},{"type":"Feature","id":570,"geometry":{"type":"LineString","coordinates":[[-73.576485699999978,45.505964900000038],[-73.576736099999948,45.506094100000041]]},"properties":{"OBJECTID":570,"F_id":null,"cycleway_both":null,"highway":null,"lanes":null,"name":null,"name_en":null,"name_fr":null,"surface":null,"wikidata":null,"wikipedia":null,"wikipedia_en":null,"Shape_Length":0.00028176727983577054}},{"type":"Feature","id":571,"geometry":{"type":"LineString","coordinates":[[-73.57648949999998,45.506360700000073],[-73.575082299999963,45.505664100000047],[-73.57490649999994,45.505578400000047],[-73.574353599999938,45.505308900000045],[-73.573673875999987,45.50497712400005],[-73.574801098999956,45.503852819000031]]},"properties":{"OBJECTID":571,"F_id":null,"cycleway_both":null,"highway":null,"lanes":null,"name":null,"name_en":null,"name_fr":null,"surface":null,"wikidata":null,"wikipedia":null,"wikipedia_en":null,"Shape_Length":0.004729285089492683}},{"type":"Feature","id":572,"geometry":{"type":"LineString","coordinates":[[-73.579562401999965,45.504585295000027],[-73.579476563999947,45.504665170000067],[-73.579722173999983,45.504806869000049],[-73.579676156999938,45.504942294000045],[-73.579690776999939,45.505346512000074],[-73.579672655999957,45.505402260000039],[-73.579559461999963,45.505535978000069],[-73.579143423999938,45.505929341000069],[-73.578974305999964,45.505980030000046],[-73.579014090999976,45.506187109000052],[-73.579038116999982,45.506245848000049],[-73.579079702999934,45.506282603000045],[-73.579145713999935,45.506322945000079],[-73.57990239999998,45.506686500000058]]},"properties":{"OBJECTID":572,"F_id":null,"cycleway_both":null,"highway":null,"lanes":null,"name":null,"name_en":null,"name_fr":null,"surface":null,"wikidata":null,"wikipedia":null,"wikipedia_en":null,"Shape_Length":0.0031779250700277126}},{"type":"Feature","id":573,"geometry":{"type":"LineString","coordinates":[[-73.578974305999964,45.505980030000046],[-73.578770076999945,45.504919446000031],[-73.578785186999937,45.504888060000042],[-73.579037470999936,45.504660996000041],[-73.579091012999982,45.504636696000034],[-73.579144844999973,45.504626281000071],[-73.579374030999986,45.504628264000075],[-73.579476563999947,45.504665170000067]]},"properties":{"OBJECTID":573,"F_id":null,"cycleway_both":null,"highway":null,"lanes":null,"name":null,"name_en":null,"name_fr":null,"surface":null,"wikidata":null,"wikipedia":null,"wikipedia_en":null,"Shape_Length":0.001906117176305824}},{"type":"Feature","id":574,"geometry":{"type":"LineString","coordinates":[[-73.579722173999983,45.504806869000049],[-73.580721531999984,45.50536186800008],[-73.580793059999962,45.505417007000062],[-73.580846525999959,45.505481370000041],[-73.580843118999951,45.505539380000073],[-73.580739924999989,45.505821648000051],[-73.580465855999989,45.505904286000032],[-73.580433006999954,45.505921590000071],[-73.579927838999936,45.506438986000035],[-73.579926203999946,45.50663477900008],[-73.57990239999998,45.506686500000058]]},"properties":{"OBJECTID":574,"F_id":null,"cycleway_both":null,"highway":null,"lanes":null,"name":null,"name_en":null,"name_fr":null,"surface":null,"wikidata":null,"wikipedia":null,"wikipedia_en":null,"Shape_Length":0.0029749981051011769}},{"type":"Feature","id":575,"geometry":{"type":"LineString","coordinates":[[-73.580739924999989,45.505821648000051],[-73.580442885999958,45.506648038000037],[-73.580405332999987,45.506703407000032],[-73.580333829999972,45.506744413000035],[-73.580240633999949,45.506768230000034],[-73.580124059999946,45.506778362000034],[-73.580056710999941,45.506765468000026],[-73.57990239999998,45.506686500000058]]},"properties":{"OBJECTID":575,"F_id":null,"cycleway_both":null,"highway":null,"lanes":null,"name":null,"name_en":null,"name_fr":null,"surface":null,"wikidata":null,"wikipedia":null,"wikipedia_en":null,"Shape_Length":0.001482602218253592}},{"type":"Feature","id":576,"geometry":{"type":"LineString","coordinates":[[-73.57648949999998,45.506360700000073],[-73.577017899999987,45.506606500000032],[-73.57758339999998,45.506879100000049],[-73.577753799999982,45.506961800000056],[-73.577872199999945,45.50701980000008],[-73.577931599999943,45.507049300000062]]},"properties":{"OBJECTID":576,"F_id":null,"cycleway_both":null,"highway":null,"lanes":null,"name":null,"name_en":null,"name_fr":null,"surface":null,"wikidata":null,"wikipedia":null,"wikipedia_en":null,"Shape_Length":0.0015981206150545142}},{"type":"Feature","id":577,"geometry":{"type":"LineString","coordinates":[[-73.577904130999968,45.507035658000063],[-73.578226098999949,45.506704496000054]]},"properties":{"OBJECTID":577,"F_id":null,"cycleway_both":null,"highway":null,"lanes":null,"name":null,"name_en":null,"name_fr":null,"surface":null,"wikidata":null,"wikipedia":null,"wikipedia_en":null,"Shape_Length":0.00046187840744208082}},{"type":"Feature","id":578,"geometry":{"type":"LineString","coordinates":[[-73.578104458999974,45.506829610000068],[-73.578176430999974,45.506864850000056]]},"properties":{"OBJECTID":578,"F_id":null,"cycleway_both":null,"highway":null,"lanes":null,"name":null,"name_en":null,"name_fr":null,"surface":null,"wikidata":null,"wikipedia":null,"wikipedia_en":null,"Shape_Length":8.013629878694307e-05}},{"type":"Feature","id":579,"geometry":{"type":"LineString","coordinates":[[-73.577235418999976,45.506711356000039],[-73.577263617999961,45.506686717000036]]},"properties":{"OBJECTID":579,"F_id":null,"cycleway_both":null,"highway":null,"lanes":null,"name":null,"name_en":null,"name_fr":null,"surface":null,"wikidata":null,"wikipedia":null,"wikipedia_en":null,"Shape_Length":3.7446814568001857e-05}},{"type":"Feature","id":580,"geometry":{"type":"LineString","coordinates":[[-73.576736099999948,45.506094100000041],[-73.57648949999998,45.506360700000073]]},"properties":{"OBJECTID":580,"F_id":null,"cycleway_both":null,"highway":null,"lanes":null,"name":null,"name_en":null,"name_fr":null,"surface":null,"wikidata":null,"wikipedia":null,"wikipedia_en":null,"Shape_Length":0.00036316266328111204}},{"type":"Feature","id":581,"geometry":{"type":"LineString","coordinates":[[-73.580729399999939,45.50273320000008],[-73.580268369999942,45.503197846000035],[-73.580256560999942,45.503218755000034],[-73.580335013999957,45.50335638200005],[-73.580341232999956,45.503452113000037],[-73.580160713999987,45.503594229000043]]},"properties":{"OBJECTID":581,"F_id":null,"cycleway_both":null,"highway":null,"lanes":null,"name":null,"name_en":null,"name_fr":null,"surface":null,"wikidata":null,"wikipedia":null,"wikipedia_en":null,"Shape_Length":0.0011626680722274937}},{"type":"Feature","id":582,"geometry":{"type":"LineString","coordinates":[[-73.580341232999956,45.503452113000037],[-73.580477549999955,45.503462296000066],[-73.580573190999985,45.503506270000059]]},"properties":{"OBJECTID":582,"F_id":null,"cycleway_both":null,"highway":null,"lanes":null,"name":null,"name_en":null,"name_fr":null,"surface":null,"wikidata":null,"wikipedia":null,"wikipedia_en":null,"Shape_Length":0.00024196272874885973}},{"type":"Feature","id":583,"geometry":{"type":"LineString","coordinates":[[-73.581185799999957,45.502849400000059],[-73.581276960999958,45.502849879000053],[-73.581476342999963,45.502656377000051],[-73.581526469999972,45.502676742000062]]},"properties":{"OBJECTID":583,"F_id":null,"cycleway_both":null,"highway":null,"lanes":null,"name":null,"name_en":null,"name_fr":null,"surface":null,"wikidata":null,"wikipedia":null,"wikipedia_en":null,"Shape_Length":0.00042311021924972057}},{"type":"Feature","id":584,"geometry":{"type":"LineString","coordinates":[[-73.581908199999987,45.503122000000076],[-73.581963433999988,45.503076233000058],[-73.581723968999938,45.502961009000046],[-73.581892721999964,45.502777324000078],[-73.581702423999957,45.502692837000041]]},"properties":{"OBJECTID":584,"F_id":null,"cycleway_both":null,"highway":null,"lanes":null,"name":null,"name_en":null,"name_fr":null,"surface":null,"wikidata":null,"wikipedia":null,"wikipedia_en":null,"Shape_Length":0.00079512069524936922}},{"type":"Feature","id":585,"geometry":{"type":"LineString","coordinates":[[-73.581963433999988,45.503076233000058],[-73.582127691999972,45.503042533000041],[-73.582250874999943,45.502932655000052],[-73.582301420999954,45.502980636000075]]},"properties":{"OBJECTID":585,"F_id":null,"cycleway_both":null,"highway":null,"lanes":null,"name":null,"name_en":null,"name_fr":null,"surface":null,"wikidata":null,"wikipedia":null,"wikipedia_en":null,"Shape_Length":0.00040243945169982011}},{"type":"Feature","id":586,"geometry":{"type":"LineString","coordinates":[[-73.581892721999964,45.502777324000078],[-73.582193596999957,45.50273683000006],[-73.582271683999977,45.502708612000049],[-73.582374852999976,45.50260195900006]]},"properties":{"OBJECTID":586,"F_id":null,"cycleway_both":null,"highway":null,"lanes":null,"name":null,"name_en":null,"name_fr":null,"surface":null,"wikidata":null,"wikipedia":null,"wikipedia_en":null,"Shape_Length":0.00053500389545288658}},{"type":"Feature","id":587,"geometry":{"type":"LineString","coordinates":[[-73.582271683999977,45.502708612000049],[-73.582289590999949,45.502790936000054],[-73.582293780999976,45.502883648000079],[-73.582250874999943,45.502932655000052]]},"properties":{"OBJECTID":587,"F_id":null,"cycleway_both":null,"highway":null,"lanes":null,"name":null,"name_en":null,"name_fr":null,"surface":null,"wikidata":null,"wikipedia":null,"wikipedia_en":null,"Shape_Length":0.00024219100528921741}},{"type":"Feature","id":588,"geometry":{"type":"LineString","coordinates":[[-73.581145599999957,45.505219500000067],[-73.581798599999956,45.504558800000041]]},"properties":{"OBJECTID":588,"F_id":null,"cycleway_both":null,"highway":null,"lanes":null,"name":null,"name_en":null,"name_fr":null,"surface":null,"wikidata":null,"wikipedia":null,"wikipedia_en":null,"Shape_Length":0.00092894213492222258}},{"type":"Feature","id":589,"geometry":{"type":"LineString","coordinates":[[-73.581798599999956,45.504558800000041],[-73.581911025999943,45.504442886000049]]},"properties":{"OBJECTID":589,"F_id":null,"cycleway_both":null,"highway":null,"lanes":null,"name":null,"name_en":null,"name_fr":null,"surface":null,"wikidata":null,"wikipedia":null,"wikipedia_en":null,"Shape_Length":0.00016147959891905144}},{"type":"Feature","id":590,"geometry":{"type":"LineString","coordinates":[[-73.579495299999962,45.50325330000004],[-73.577102009999976,45.502083088000063],[-73.576743315999977,45.501882993000038],[-73.576615499999946,45.502013200000079]]},"properties":{"OBJECTID":590,"F_id":null,"cycleway_both":null,"highway":null,"lanes":null,"name":null,"name_en":null,"name_fr":null,"surface":null,"wikidata":null,"wikipedia":null,"wikipedia_en":null,"Shape_Length":0.0032572512429979478}},{"type":"Feature","id":591,"geometry":{"type":"LineString","coordinates":[[-73.579495299999962,45.50325330000004],[-73.580336799999941,45.502576200000078]]},"properties":{"OBJECTID":591,"F_id":null,"cycleway_both":null,"highway":null,"lanes":null,"name":null,"name_en":null,"name_fr":null,"surface":null,"wikidata":null,"wikipedia":null,"wikipedia_en":null,"Shape_Length":0.0010800864131689347}},{"type":"Feature","id":592,"geometry":{"type":"LineString","coordinates":[[-73.580459899999937,45.502479500000049],[-73.580716629999984,45.502306483000041],[-73.581041363999987,45.50198087800004]]},"properties":{"OBJECTID":592,"F_id":null,"cycleway_both":null,"highway":null,"lanes":null,"name":null,"name_en":null,"name_fr":null,"surface":null,"wikidata":null,"wikipedia":null,"wikipedia_en":null,"Shape_Length":0.00076944824886188297}},{"type":"Feature","id":593,"geometry":{"type":"LineString","coordinates":[[-73.573673875999987,45.50497712400005],[-73.573611702999983,45.505044001000044],[-73.573371402999953,45.505295970000077],[-73.573183255999936,45.505514380000079],[-73.573097899999937,45.505658500000038],[-73.572902546999956,45.505973322000045],[-73.572799384999939,45.506145512000046],[-73.572858561999965,45.506175564000046]]},"properties":{"OBJECTID":593,"F_id":null,"cycleway_both":null,"highway":null,"lanes":null,"name":null,"name_en":null,"name_fr":null,"surface":null,"wikidata":null,"wikipedia":null,"wikipedia_en":null,"Shape_Length":0.0015328777079857906}},{"type":"Feature","id":594,"geometry":{"type":"LineString","coordinates":[[-73.573383799999988,45.505301100000054],[-73.573371402999953,45.505295970000077]]},"properties":{"OBJECTID":594,"F_id":null,"cycleway_both":null,"highway":null,"lanes":null,"name":null,"name_en":null,"name_fr":null,"surface":null,"wikidata":null,"wikipedia":null,"wikipedia_en":null,"Shape_Length":1.3416501392619216e-05}},{"type":"Feature","id":595,"geometry":{"type":"LineString","coordinates":[[-73.574340099999972,45.505459200000075],[-73.573582797999961,45.505074310000055]]},"properties":{"OBJECTID":595,"F_id":null,"cycleway_both":null,"highway":null,"lanes":null,"name":null,"name_en":null,"name_fr":null,"surface":null,"wikidata":null,"wikipedia":null,"wikipedia_en":null,"Shape_Length":0.00084949787011884932}},{"type":"Feature","id":596,"geometry":{"type":"LineString","coordinates":[[-73.574340099999972,45.505459200000075],[-73.574533699999961,45.505548200000078],[-73.576342817999944,45.506444273000056],[-73.576444100999936,45.506338227000072]]},"properties":{"OBJECTID":596,"F_id":null,"cycleway_both":null,"highway":null,"lanes":null,"name":null,"name_en":null,"name_fr":null,"surface":null,"wikidata":null,"wikipedia":null,"wikipedia_en":null,"Shape_Length":0.0023785944066599088}},{"type":"Feature","id":597,"geometry":{"type":"LineString","coordinates":[[-73.576342817999944,45.506444273000056],[-73.576554548999979,45.506536394000079],[-73.576647338999976,45.506434124000066]]},"properties":{"OBJECTID":597,"F_id":null,"cycleway_both":null,"highway":null,"lanes":null,"name":null,"name_en":null,"name_fr":null,"surface":null,"wikidata":null,"wikipedia":null,"wikipedia_en":null,"Shape_Length":0.0003689942617622868}},{"type":"Feature","id":598,"geometry":{"type":"LineString","coordinates":[[-73.577145999999971,45.504495900000052],[-73.577779899999939,45.504820400000028]]},"properties":{"OBJECTID":598,"F_id":null,"cycleway_both":null,"highway":null,"lanes":null,"name":null,"name_en":null,"name_fr":null,"surface":null,"wikidata":null,"wikipedia":null,"wikipedia_en":null,"Shape_Length":0.00071213022681581618}},{"type":"Feature","id":599,"geometry":{"type":"LineString","coordinates":[[-73.576337999999964,45.50468630000006],[-73.576413499999944,45.504754600000069]]},"properties":{"OBJECTID":599,"F_id":null,"cycleway_both":null,"highway":null,"lanes":null,"name":null,"name_en":null,"name_fr":null,"surface":null,"wikidata":null,"wikipedia":null,"wikipedia_en":null,"Shape_Length":0.00010180933158732818}},{"type":"Feature","id":600,"geometry":{"type":"LineString","coordinates":[[-73.57822132299998,45.504298708000078],[-73.578173979999974,45.504336758000079]]},"properties":{"OBJECTID":600,"F_id":null,"cycleway_both":null,"highway":null,"lanes":null,"name":null,"name_en":null,"name_fr":null,"surface":null,"wikidata":null,"wikipedia":null,"wikipedia_en":null,"Shape_Length":6.0738473388595522e-05}},{"type":"Feature","id":601,"geometry":{"type":"LineString","coordinates":[[-73.581145599999957,45.505219500000067],[-73.581072899999981,45.505353700000057]]},"properties":{"OBJECTID":601,"F_id":null,"cycleway_both":null,"highway":null,"lanes":null,"name":null,"name_en":null,"name_fr":null,"surface":null,"wikidata":null,"wikipedia":null,"wikipedia_en":null,"Shape_Length":0.00015262676696439352}},{"type":"Feature","id":602,"geometry":{"type":"LineString","coordinates":[[-73.582826542999953,45.503220248000048],[-73.583035995999978,45.503315943000075],[-73.582319609999956,45.504119413000069],[-73.582084691999967,45.504368397000064],[-73.582004773999984,45.50444387400006],[-73.581965967999963,45.504459298000029],[-73.581938599999944,45.504454000000067]]},"properties":{"OBJECTID":602,"F_id":null,"cycleway_both":null,"highway":null,"lanes":null,"name":null,"name_en":null,"name_fr":null,"surface":null,"wikidata":null,"wikipedia":null,"wikipedia_en":null,"Shape_Length":0.0018286170730908732}},{"type":"Feature","id":603,"geometry":{"type":"LineString","coordinates":[[-73.576254539999979,45.502367111000069],[-73.576319516999945,45.502401735000035]]},"properties":{"OBJECTID":603,"F_id":null,"cycleway_both":null,"highway":null,"lanes":null,"name":null,"name_en":null,"name_fr":null,"surface":null,"wikidata":null,"wikipedia":null,"wikipedia_en":null,"Shape_Length":7.3626298957230326e-05}},{"type":"Feature","id":604,"geometry":{"type":"LineString","coordinates":[[-73.578912699999989,45.507102800000041],[-73.578739199999973,45.507007797000028],[-73.578741399999956,45.506977000000063]]},"properties":{"OBJECTID":604,"F_id":null,"cycleway_both":null,"highway":null,"lanes":null,"name":null,"name_en":null,"name_fr":null,"surface":null,"wikidata":null,"wikipedia":null,"wikipedia_en":null,"Shape_Length":0.00022868301181512806}},{"type":"Feature","id":605,"geometry":{"type":"LineString","coordinates":[[-73.579736099999934,45.507144500000038],[-73.579629803999978,45.507246265000049],[-73.579726028999971,45.50729440200007]]},"properties":{"OBJECTID":605,"F_id":null,"cycleway_both":null,"highway":null,"lanes":null,"name":null,"name_en":null,"name_fr":null,"surface":null,"wikidata":null,"wikipedia":null,"wikipedia_en":null,"Shape_Length":0.00025475000547851503}},{"type":"Feature","id":606,"geometry":{"type":"LineString","coordinates":[[-73.579629803999978,45.507246265000049],[-73.579564999999945,45.50727020000005]]},"properties":{"OBJECTID":606,"F_id":null,"cycleway_both":null,"highway":null,"lanes":null,"name":null,"name_en":null,"name_fr":null,"surface":null,"wikidata":null,"wikipedia":null,"wikipedia_en":null,"Shape_Length":6.9082867958192624e-05}},{"type":"Feature","id":607,"geometry":{"type":"LineString","coordinates":[[-73.579198199999951,45.507090500000061],[-73.579255778999936,45.507121525000059],[-73.579292360999943,45.507087264000063],[-73.579629803999978,45.507246265000049]]},"properties":{"OBJECTID":607,"F_id":null,"cycleway_both":null,"highway":null,"lanes":null,"name":null,"name_en":null,"name_fr":null,"surface":null,"wikidata":null,"wikipedia":null,"wikipedia_en":null,"Shape_Length":0.00048855297616531216}},{"type":"Feature","id":608,"geometry":{"type":"LineString","coordinates":[[-73.578346499999952,45.504072700000052],[-73.578350299999954,45.504351800000052]]},"properties":{"OBJECTID":608,"F_id":null,"cycleway_both":null,"highway":null,"lanes":null,"name":null,"name_en":null,"name_fr":null,"surface":null,"wikidata":null,"wikipedia":null,"wikipedia_en":null,"Shape_Length":0.00027912586766569013}}]
}